HIERARCHY
ROOT Hips
{
    OFFSET 0 0 0
    CHANNELS 6 Xposition Yposition Zposition Zrotation Xrotation Yrotation

    JOINT Spine
    {
        OFFSET 0 10 0
        CHANNELS 3 Zrotation Xrotation Yrotation

        JOINT Spine1
        {
            OFFSET 0 10 0
            CHANNELS 3 Zrotation Xrotation Yrotation

            JOINT Spine2
            {
                OFFSET 0 10 0
                CHANNELS 3 Zrotation Xrotation Yrotation

                JOINT Neck
                {
                    OFFSET 0 10 0
                    CHANNELS 3 Zrotation Xrotation Yrotation

                    JOINT Head
                    {
                        OFFSET 0 5 0
                        CHANNELS 3 Zrotation Xrotation Yrotation
                    }
                }
            }
        }
    }

    JOINT LeftUpLeg
    {
        OFFSET 5 0 0
        CHANNELS 3 Zrotation Xrotation Yrotation

        JOINT LeftLeg
        {
            OFFSET 0 -20 0
            CHANNELS 3 Zrotation Xrotation Yrotation

            JOINT LeftFoot
            {
                OFFSET 0 -20 5
                CHANNELS 3 Zrotation Xrotation Yrotation
            }
        }
    }

    JOINT RightUpLeg
    {
        OFFSET -5 0 0
        CHANNELS 3 Zrotation Xrotation Yrotation

        JOINT RightLeg
        {
            OFFSET 0 -20 0
            CHANNELS 3 Zrotation Xrotation Yrotation

            JOINT RightFoot
            {
                OFFSET 0 -20 5
                CHANNELS 3 Zrotation Xrotation Yrotation
            }
        }
    }
}

MOTION
Frames: 246
Frame Time: 0.033198
59.150168 0.008783 -46.820405 0.000000 0.000000 0.000000 63.843704 80.203233 0.000000 4.123389 20.444111 0.000000 0.000000 0.000000 0.000000 -28.958928 80.325410 0.000000 -1.361681 21.953843 0.000000 0.000000 0.000000 0.000000 0.000000 0.000000 0.000000 0.000000 0.000000 0.000000 0.000000 0.000000 0.000000 0.000000 0.000000 0.000000 0.000000 0.000000 0.000000
59.337622 0.008798 -46.834633 0.000000 0.000000 0.000000 61.808005 80.441387 0.000000 4.041278 19.307301 0.000000 0.000000 0.000000 0.000000 -29.346637 79.147628 0.000000 -1.342892 21.045957 0.000000 0.000000 0.000000 0.000000 0.000000 0.000000 0.000000 0.000000 0.000000 0.000000 0.000000 0.000000 0.000000 0.000000 0.000000 0.000000 0.000000 0.000000 0.000000
59.650743 0.008817 -46.824354 0.000000 0.000000 0.000000 60.704794 80.703014 0.000000 4.018781 19.435471 0.000000 0.000000 0.000000 0.000000 -34.118388 78.231974 0.000000 -1.325186 21.193737 0.000000 0.000000 0.000000 0.000000 0.000000 0.000000 0.000000 0.000000 0.000000 0.000000 0.000000 0.000000 0.000000 0.000000 0.000000 0.000000 0.000000 0.000000 0.000000
60.019431 0.009302 -46.801187 0.000000 0.000000 0.000000 61.772265 81.356667 0.000000 3.995159 19.908899 0.000000 0.000000 0.000000 0.000000 -41.682009 77.519889 0.000000 -1.012968 21.179798 0.000000 0.000000 0.000000 0.000000 0.000000 0.000000 0.000000 0.000000 0.000000 0.000000 0.000000 0.000000 0.000000 0.000000 0.000000 0.000000 0.000000 0.000000 0.000000
60.492676 0.009246 -46.807624 0.000000 0.000000 0.000000 79.734201 82.844165 0.000000 3.731721 19.853748 0.000000 0.000000 0.000000 0.000000 -51.346852 76.817361 0.000000 -0.237824 21.198394 0.000000 0.000000 0.000000 0.000000 0.000000 0.000000 0.000000 0.000000 0.000000 0.000000 0.000000 0.000000 0.000000 0.000000 0.000000 0.000000 0.000000 0.000000 0.000000
60.884601 0.009189 -46.827471 0.000000 0.000000 0.000000 110.450227 82.863024 0.000000 3.638554 19.912832 0.000000 0.000000 0.000000 0.000000 -69.689281 77.314130 0.000000 0.444749 21.059329 0.000000 0.000000 0.000000 0.000000 0.000000 0.000000 0.000000 0.000000 0.000000 0.000000 0.000000 0.000000 0.000000 0.000000 0.000000 0.000000 0.000000 0.000000 0.000000
61.267325 0.009008 -46.910062 0.000000 0.000000 0.000000 105.289836 83.634516 0.000000 3.663710 19.840948 0.000000 0.000000 0.000000 0.000000 -71.061864 76.096133 0.000000 0.841429 20.950636 0.000000 0.000000 0.000000 0.000000 0.000000 0.000000 0.000000 0.000000 0.000000 0.000000 0.000000 0.000000 0.000000 0.000000 0.000000 0.000000 0.000000 0.000000 0.000000
61.567011 0.009163 -47.032286 0.000000 0.000000 0.000000 54.511898 83.462042 0.000000 3.460022 19.096095 0.000000 0.000000 0.000000 0.000000 -58.074981 75.731606 0.000000 0.411789 20.746001 0.000000 0.000000 0.000000 0.000000 0.000000 0.000000 0.000000 0.000000 0.000000 0.000000 0.000000 0.000000 0.000000 0.000000 0.000000 0.000000 0.000000 0.000000 0.000000
61.750236 0.009720 -47.076134 0.000000 0.000000 0.000000 56.786590 84.006089 0.000000 3.256030 18.572295 0.000000 0.000000 0.000000 0.000000 -50.806000 76.520468 0.000000 -0.369238 20.449482 0.000000 0.000000 0.000000 0.000000 0.000000 0.000000 0.000000 0.000000 0.000000 0.000000 0.000000 0.000000 0.000000 0.000000 0.000000 0.000000 0.000000 0.000000 0.000000
61.947915 0.010061 -47.100405 0.000000 0.000000 0.000000 53.867077 83.829435 0.000000 2.943726 18.130657 0.000000 0.000000 0.000000 0.000000 -44.195365 75.862874 0.000000 -0.933419 20.430383 0.000000 0.000000 0.000000 0.000000 0.000000 0.000000 0.000000 0.000000 0.000000 0.000000 0.000000 0.000000 0.000000 0.000000 0.000000 0.000000 0.000000 0.000000 0.000000
62.149647 0.009810 -47.107995 0.000000 0.000000 0.000000 52.160951 84.174161 0.000000 2.830630 18.368666 0.000000 0.000000 0.000000 0.000000 -45.079083 75.745580 0.000000 -1.149198 20.569734 0.000000 0.000000 0.000000 0.000000 0.000000 0.000000 0.000000 0.000000 0.000000 0.000000 0.000000 0.000000 0.000000 0.000000 0.000000 0.000000 0.000000 0.000000 0.000000
62.303919 0.009574 -47.092737 0.000000 0.000000 0.000000 62.178249 85.256614 0.000000 2.776471 18.443620 0.000000 0.000000 0.000000 0.000000 -48.443582 76.272765 0.000000 -1.340472 20.570454 0.000000 0.000000 0.000000 0.000000 0.000000 0.000000 0.000000 0.000000 0.000000 0.000000 0.000000 0.000000 0.000000 0.000000 0.000000 0.000000 0.000000 0.000000 0.000000
62.513310 0.009063 -47.097448 0.000000 0.000000 0.000000 62.905498 86.076168 0.000000 2.690267 18.392324 0.000000 0.000000 0.000000 0.000000 -49.064400 75.936186 0.000000 -1.539566 20.637702 0.000000 0.000000 0.000000 0.000000 0.000000 0.000000 0.000000 0.000000 0.000000 0.000000 0.000000 0.000000 0.000000 0.000000 0.000000 0.000000 0.000000 0.000000 0.000000
62.651369 0.009230 -47.078261 0.000000 0.000000 0.000000 61.013357 86.587887 0.000000 2.655462 18.252960 0.000000 0.000000 0.000000 0.000000 -49.079452 75.724152 0.000000 -1.687967 20.682324 0.000000 0.000000 0.000000 0.000000 0.000000 0.000000 0.000000 0.000000 0.000000 0.000000 0.000000 0.000000 0.000000 0.000000 0.000000 0.000000 0.000000 0.000000 0.000000
62.827033 0.009352 -47.100051 0.000000 0.000000 0.000000 61.705449 86.824340 0.000000 2.414035 17.933448 0.000000 0.000000 0.000000 0.000000 -47.867601 75.272637 0.000000 -1.869210 20.584069 0.000000 0.000000 0.000000 0.000000 0.000000 0.000000 0.000000 0.000000 0.000000 0.000000 0.000000 0.000000 0.000000 0.000000 0.000000 0.000000 0.000000 0.000000 0.000000
62.944889 0.009376 -47.111541 0.000000 0.000000 0.000000 71.942514 87.177568 0.000000 2.299456 17.824271 0.000000 0.000000 0.000000 0.000000 -48.877007 75.224413 0.000000 -1.931913 20.320348 0.000000 0.000000 0.000000 0.000000 0.000000 0.000000 0.000000 0.000000 0.000000 0.000000 0.000000 0.000000 0.000000 0.000000 0.000000 0.000000 0.000000 0.000000 0.000000
63.135132 0.009448 -47.122419 0.000000 0.000000 0.000000 51.340195 86.606165 0.000000 2.038040 17.546369 0.000000 0.000000 0.000000 0.000000 -48.092599 74.733608 0.000000 -2.070548 20.161047 0.000000 0.000000 0.000000 0.000000 0.000000 0.000000 0.000000 0.000000 0.000000 0.000000 0.000000 0.000000 0.000000 0.000000 0.000000 0.000000 0.000000 0.000000 0.000000
63.320795 0.009432 -47.126628 0.000000 0.000000 0.000000 45.439244 86.883241 0.000000 1.982244 17.589820 0.000000 0.000000 0.000000 0.000000 -49.020927 74.261888 0.000000 -2.183775 20.480545 0.000000 0.000000 0.000000 0.000000 0.000000 0.000000 0.000000 0.000000 0.000000 0.000000 0.000000 0.000000 0.000000 0.000000 0.000000 0.000000 0.000000 0.000000 0.000000
63.501212 0.009140 -47.176607 0.000000 0.000000 0.000000 45.897532 87.299406 0.000000 1.851903 17.602599 0.000000 0.000000 0.000000 0.000000 -50.054801 73.952993 0.000000 -2.330590 20.970920 0.000000 0.000000 0.000000 0.000000 0.000000 0.000000 0.000000 0.000000 0.000000 0.000000 0.000000 0.000000 0.000000 0.000000 0.000000 0.000000 0.000000 0.000000 0.000000
63.594079 0.009226 -47.176965 0.000000 0.000000 0.000000 26.729115 86.192620 0.000000 1.886307 17.875650 0.000000 0.000000 0.000000 0.000000 -48.208494 73.677438 0.000000 -2.575147 21.571986 0.000000 0.000000 0.000000 0.000000 0.000000 0.000000 0.000000 0.000000 0.000000 0.000000 0.000000 0.000000 0.000000 0.000000 0.000000 0.000000 0.000000 0.000000 0.000000
63.740304 0.009147 -47.222948 0.000000 0.000000 0.000000 36.412174 86.605323 0.000000 1.592590 17.911276 0.000000 0.000000 0.000000 0.000000 -48.889346 73.487118 0.000000 -2.713543 21.923673 0.000000 0.000000 0.000000 0.000000 0.000000 0.000000 0.000000 0.000000 0.000000 0.000000 0.000000 0.000000 0.000000 0.000000 0.000000 0.000000 0.000000 0.000000 0.000000
63.797060 0.009254 -47.217548 0.000000 0.000000 0.000000 35.743506 86.725203 0.000000 1.609301 18.044286 0.000000 0.000000 0.000000 0.000000 -47.620811 73.174272 0.000000 -2.738558 21.897827 0.000000 0.000000 0.000000 0.000000 0.000000 0.000000 0.000000 0.000000 0.000000 0.000000 0.000000 0.000000 0.000000 0.000000 0.000000 0.000000 0.000000 0.000000 0.000000
63.852745 0.009169 -47.221337 0.000000 0.000000 0.000000 70.968220 88.003453 0.000000 1.523356 17.794624 0.000000 0.000000 0.000000 0.000000 -49.509724 73.682466 0.000000 -2.775590 21.627748 0.000000 0.000000 0.000000 0.000000 0.000000 0.000000 0.000000 0.000000 0.000000 0.000000 0.000000 0.000000 0.000000 0.000000 0.000000 0.000000 0.000000 0.000000 0.000000
63.887906 0.009140 -47.211339 0.000000 0.000000 0.000000 91.366296 88.151054 0.000000 1.512665 17.768637 0.000000 0.000000 0.000000 0.000000 -49.764030 73.705334 0.000000 -2.755570 21.601462 0.000000 0.000000 0.000000 0.000000 0.000000 0.000000 0.000000 0.000000 0.000000 0.000000 0.000000 0.000000 0.000000 0.000000 0.000000 0.000000 0.000000 0.000000 0.000000
63.907954 0.009090 -47.204553 0.000000 0.000000 0.000000 137.708549 87.311659 0.000000 1.485388 17.567902 0.000000 0.000000 0.000000 0.000000 -50.451047 73.881123 0.000000 -2.695688 21.335612 0.000000 0.000000 0.000000 0.000000 0.000000 0.000000 0.000000 0.000000 0.000000 0.000000 0.000000 0.000000 0.000000 0.000000 0.000000 0.000000 0.000000 0.000000 0.000000
63.899595 0.008978 -47.203726 0.000000 0.000000 0.000000 152.859991 85.760037 0.000000 1.478128 17.338501 0.000000 0.000000 0.000000 0.000000 -51.113446 74.185926 0.000000 -2.607008 20.891001 0.000000 0.000000 0.000000 0.000000 0.000000 0.000000 0.000000 0.000000 0.000000 0.000000 0.000000 0.000000 0.000000 0.000000 0.000000 0.000000 0.000000 0.000000 0.000000
63.891572 0.008955 -47.197941 0.000000 0.000000 0.000000 156.113199 85.033840 0.000000 1.486695 17.285895 0.000000 0.000000 0.000000 0.000000 -51.940258 74.536700 0.000000 -2.596567 20.695922 0.000000 0.000000 0.000000 0.000000 0.000000 0.000000 0.000000 0.000000 0.000000 0.000000 0.000000 0.000000 0.000000 0.000000 0.000000 0.000000 0.000000 0.000000 0.000000
63.885543 0.009047 -47.196487 0.000000 0.000000 0.000000 156.552588 84.907530 0.000000 1.557052 17.560900 0.000000 0.000000 0.000000 0.000000 -53.013568 74.945875 0.000000 -2.607095 20.830843 0.000000 0.000000 0.000000 0.000000 0.000000 0.000000 0.000000 0.000000 0.000000 0.000000 0.000000 0.000000 0.000000 0.000000 0.000000 0.000000 0.000000 0.000000 0.000000
63.831303 0.009669 -47.187388 0.000000 0.000000 0.000000 151.879013 85.402217 0.000000 1.766043 18.233005 0.000000 0.000000 0.000000 0.000000 -53.745287 75.337286 0.000000 -2.697554 21.600915 0.000000 0.000000 0.000000 0.000000 0.000000 0.000000 0.000000 0.000000 0.000000 0.000000 0.000000 0.000000 0.000000 0.000000 0.000000 0.000000 0.000000 0.000000 0.000000
63.701445 0.010212 -47.169831 0.000000 0.000000 0.000000 140.660570 86.217282 0.000000 1.964202 18.845590 0.000000 0.000000 0.000000 0.000000 -51.993116 75.689735 0.000000 -2.806663 22.328838 0.000000 0.000000 0.000000 0.000000 0.000000 0.000000 0.000000 0.000000 0.000000 0.000000 0.000000 0.000000 0.000000 0.000000 0.000000 0.000000 0.000000 0.000000 0.000000
63.484576 0.010318 -47.149880 0.000000 0.000000 0.000000 117.646527 86.622145 0.000000 2.128541 18.985580 0.000000 0.000000 0.000000 0.000000 -49.432200 76.293731 0.000000 -2.898957 22.388745 0.000000 0.000000 0.000000 0.000000 0.000000 0.000000 0.000000 0.000000 0.000000 0.000000 0.000000 0.000000 0.000000 0.000000 0.000000 0.000000 0.000000 0.000000 0.000000
63.212764 0.010535 -47.071953 0.000000 0.000000 0.000000 111.408277 86.147910 0.000000 2.361356 19.264362 0.000000 0.000000 0.000000 0.000000 -47.275765 77.104675 0.000000 -2.935127 22.497850 0.000000 0.000000 0.000000 0.000000 0.000000 0.000000 0.000000 0.000000 0.000000 0.000000 0.000000 0.000000 0.000000 0.000000 0.000000 0.000000 0.000000 0.000000 0.000000
62.784070 0.010916 -47.027303 0.000000 0.000000 0.000000 103.125341 85.467806 0.000000 2.873390 20.386112 0.000000 0.000000 0.000000 0.000000 -45.603178 78.695191 0.000000 -3.095019 23.624500 0.000000 0.000000 0.000000 0.000000 0.000000 0.000000 0.000000 0.000000 0.000000 0.000000 0.000000 0.000000 0.000000 0.000000 0.000000 0.000000 0.000000 0.000000 0.000000
62.329954 0.011518 -46.935301 0.000000 0.000000 0.000000 98.907332 84.447435 0.000000 3.201517 21.007638 0.000000 0.000000 0.000000 0.000000 -40.734546 79.776114 0.000000 -3.136111 24.384341 0.000000 0.000000 0.000000 0.000000 0.000000 0.000000 0.000000 0.000000 0.000000 0.000000 0.000000 0.000000 0.000000 0.000000 0.000000 0.000000 0.000000 0.000000 0.000000
61.812943 0.012533 -46.902965 0.000000 0.000000 0.000000 90.876191 83.836861 0.000000 3.864111 21.921127 0.000000 0.000000 0.000000 0.000000 -34.078314 80.501471 0.000000 -3.005703 25.192864 0.000000 0.000000 0.000000 0.000000 0.000000 0.000000 0.000000 0.000000 0.000000 0.000000 0.000000 0.000000 0.000000 0.000000 0.000000 0.000000 0.000000 0.000000 0.000000
61.263222 0.013103 -46.879423 0.000000 0.000000 0.000000 86.581397 83.204020 0.000000 4.428009 21.575409 0.000000 0.000000 0.000000 0.000000 -25.339233 81.026668 0.000000 -2.735285 24.819075 0.000000 0.000000 0.000000 0.000000 0.000000 0.000000 0.000000 0.000000 0.000000 0.000000 0.000000 0.000000 0.000000 0.000000 0.000000 0.000000 0.000000 0.000000 0.000000
60.747117 0.013954 -46.874480 0.000000 0.000000 0.000000 71.550051 81.907315 0.000000 4.965981 22.038329 0.000000 0.000000 0.000000 0.000000 -17.035750 80.002352 0.000000 -2.301719 25.062308 0.000000 0.000000 0.000000 0.000000 0.000000 0.000000 0.000000 0.000000 0.000000 0.000000 0.000000 0.000000 0.000000 0.000000 0.000000 0.000000 0.000000 0.000000 0.000000
60.297510 0.014138 -46.873099 0.000000 0.000000 0.000000 56.665390 81.463841 0.000000 6.523433 24.006820 0.000000 0.000000 0.000000 0.000000 -11.793055 79.874123 0.000000 -2.064744 26.623287 0.000000 0.000000 0.000000 0.000000 0.000000 0.000000 0.000000 0.000000 0.000000 0.000000 0.000000 0.000000 0.000000 0.000000 0.000000 0.000000 0.000000 0.000000 0.000000
59.739220 0.013927 -46.858452 0.000000 0.000000 0.000000 44.512786 80.141124 0.000000 7.885673 24.760609 0.000000 0.000000 0.000000 0.000000 -8.592553 80.339972 0.000000 -1.351017 26.986393 0.000000 0.000000 0.000000 0.000000 0.000000 0.000000 0.000000 0.000000 0.000000 0.000000 0.000000 0.000000 0.000000 0.000000 0.000000 0.000000 0.000000 0.000000 0.000000
59.117514 0.014325 -46.844463 0.000000 0.000000 0.000000 53.342739 80.565629 0.000000 7.957844 23.399722 0.000000 0.000000 0.000000 0.000000 -7.339818 81.504752 0.000000 -0.302284 25.912304 0.000000 0.000000 0.000000 0.000000 0.000000 0.000000 0.000000 0.000000 0.000000 0.000000 0.000000 0.000000 0.000000 0.000000 0.000000 0.000000 0.000000 0.000000 0.000000
58.376253 0.014114 -46.843740 0.000000 0.000000 0.000000 56.538008 79.590814 0.000000 8.450558 23.171188 0.000000 0.000000 0.000000 0.000000 -5.363356 82.289558 0.000000 0.869326 25.407917 0.000000 0.000000 0.000000 0.000000 0.000000 0.000000 0.000000 0.000000 0.000000 0.000000 0.000000 0.000000 0.000000 0.000000 0.000000 0.000000 0.000000 0.000000 0.000000
57.738277 0.014120 -46.827725 0.000000 0.000000 0.000000 58.269516 78.501065 0.000000 8.959330 23.074255 0.000000 0.000000 0.000000 0.000000 0.464972 82.393646 0.000000 1.583692 25.207531 0.000000 0.000000 0.000000 0.000000 0.000000 0.000000 0.000000 0.000000 0.000000 0.000000 0.000000 0.000000 0.000000 0.000000 0.000000 0.000000 0.000000 0.000000 0.000000
57.112864 0.013439 -46.835156 0.000000 0.000000 0.000000 55.550797 77.305021 0.000000 9.789281 23.220998 0.000000 0.000000 0.000000 0.000000 4.961857 82.678313 0.000000 2.339032 24.955532 0.000000 0.000000 0.000000 0.000000 0.000000 0.000000 0.000000 0.000000 0.000000 0.000000 0.000000 0.000000 0.000000 0.000000 0.000000 0.000000 0.000000 0.000000 0.000000
56.577629 0.012632 -46.861567 0.000000 0.000000 0.000000 52.041635 76.305948 0.000000 10.253637 23.007108 0.000000 0.000000 0.000000 0.000000 11.481143 80.482348 0.000000 2.576085 24.806415 0.000000 0.000000 0.000000 0.000000 0.000000 0.000000 0.000000 0.000000 0.000000 0.000000 0.000000 0.000000 0.000000 0.000000 0.000000 0.000000 0.000000 0.000000 0.000000
55.964634 0.012593 -46.875709 0.000000 0.000000 0.000000 48.798280 74.596436 0.000000 10.990154 23.364543 0.000000 0.000000 0.000000 0.000000 15.003827 79.001483 0.000000 3.036053 24.891606 0.000000 0.000000 0.000000 0.000000 0.000000 0.000000 0.000000 0.000000 0.000000 0.000000 0.000000 0.000000 0.000000 0.000000 0.000000 0.000000 0.000000 0.000000 0.000000
55.380918 0.012326 -46.888041 0.000000 0.000000 0.000000 52.431179 74.254574 0.000000 11.422559 23.613307 0.000000 0.000000 0.000000 0.000000 21.296535 79.892160 0.000000 3.540809 24.631327 0.000000 0.000000 0.000000 0.000000 0.000000 0.000000 0.000000 0.000000 0.000000 0.000000 0.000000 0.000000 0.000000 0.000000 0.000000 0.000000 0.000000 0.000000 0.000000
54.864611 0.012336 -46.917075 0.000000 0.000000 0.000000 55.346687 73.923802 0.000000 11.528403 23.641315 0.000000 0.000000 0.000000 0.000000 28.546765 79.777871 0.000000 3.818653 24.517118 0.000000 0.000000 0.000000 0.000000 0.000000 0.000000 0.000000 0.000000 0.000000 0.000000 0.000000 0.000000 0.000000 0.000000 0.000000 0.000000 0.000000 0.000000 0.000000
54.398136 0.012161 -46.951427 0.000000 0.000000 0.000000 57.659299 73.778158 0.000000 11.586718 23.484829 0.000000 0.000000 0.000000 0.000000 33.969457 79.548311 0.000000 4.179530 24.321832 0.000000 0.000000 0.000000 0.000000 0.000000 0.000000 0.000000 0.000000 0.000000 0.000000 0.000000 0.000000 0.000000 0.000000 0.000000 0.000000 0.000000 0.000000 0.000000
53.956851 0.012301 -46.982512 0.000000 0.000000 0.000000 59.951942 73.335865 0.000000 11.625202 23.299852 0.000000 0.000000 0.000000 0.000000 38.842387 78.991719 0.000000 4.391874 24.175423 0.000000 0.000000 0.000000 0.000000 0.000000 0.000000 0.000000 0.000000 0.000000 0.000000 0.000000 0.000000 0.000000 0.000000 0.000000 0.000000 0.000000 0.000000 0.000000
53.588584 0.012322 -47.024798 0.000000 0.000000 0.000000 64.686758 73.227569 0.000000 11.376514 23.061797 0.000000 0.000000 0.000000 0.000000 42.866614 78.882659 0.000000 4.673603 23.939764 0.000000 0.000000 0.000000 0.000000 0.000000 0.000000 0.000000 0.000000 0.000000 0.000000 0.000000 0.000000 0.000000 0.000000 0.000000 0.000000 0.000000 0.000000 0.000000
53.274508 0.012475 -47.034173 0.000000 0.000000 0.000000 70.840459 72.711413 0.000000 11.010721 22.776767 0.000000 0.000000 0.000000 0.000000 45.174125 79.190080 0.000000 5.083191 23.815334 0.000000 0.000000 0.000000 0.000000 0.000000 0.000000 0.000000 0.000000 0.000000 0.000000 0.000000 0.000000 0.000000 0.000000 0.000000 0.000000 0.000000 0.000000 0.000000
52.990130 0.012827 -47.086900 0.000000 0.000000 0.000000 72.657787 71.755269 0.000000 10.428281 22.122520 0.000000 0.000000 0.000000 0.000000 47.597773 79.101788 0.000000 5.291554 23.484305 0.000000 0.000000 0.000000 0.000000 0.000000 0.000000 0.000000 0.000000 0.000000 0.000000 0.000000 0.000000 0.000000 0.000000 0.000000 0.000000 0.000000 0.000000 0.000000
52.705370 0.012816 -47.121572 0.000000 0.000000 0.000000 81.670504 71.331183 0.000000 10.083615 21.597354 0.000000 0.000000 0.000000 0.000000 61.642501 81.044145 0.000000 5.573458 22.494531 0.000000 0.000000 0.000000 0.000000 0.000000 0.000000 0.000000 0.000000 0.000000 0.000000 0.000000 0.000000 0.000000 0.000000 0.000000 0.000000 0.000000 0.000000 0.000000
52.464652 0.012923 -47.178127 0.000000 0.000000 0.000000 84.740385 70.623407 0.000000 9.695799 21.237274 0.000000 0.000000 0.000000 0.000000 70.045535 81.085231 0.000000 5.558859 21.986397 0.000000 0.000000 0.000000 0.000000 0.000000 0.000000 0.000000 0.000000 0.000000 0.000000 0.000000 0.000000 0.000000 0.000000 0.000000 0.000000 0.000000 0.000000 0.000000
52.252424 0.012931 -47.234878 0.000000 0.000000 0.000000 89.142045 69.999324 0.000000 9.491389 20.947185 0.000000 0.000000 0.000000 0.000000 71.100903 80.687254 0.000000 5.693409 21.866681 0.000000 0.000000 0.000000 0.000000 0.000000 0.000000 0.000000 0.000000 0.000000 0.000000 0.000000 0.000000 0.000000 0.000000 0.000000 0.000000 0.000000 0.000000 0.000000
52.076983 0.012943 -47.296825 0.000000 0.000000 0.000000 92.185167 69.460156 0.000000 9.040624 20.157235 0.000000 0.000000 0.000000 0.000000 75.153064 80.426223 0.000000 5.399391 20.748001 0.000000 0.000000 0.000000 0.000000 0.000000 0.000000 0.000000 0.000000 0.000000 0.000000 0.000000 0.000000 0.000000 0.000000 0.000000 0.000000 0.000000 0.000000 0.000000
51.907955 0.012845 -47.325628 0.000000 0.000000 0.000000 98.270207 68.968552 0.000000 8.936139 19.969034 0.000000 0.000000 0.000000 0.000000 81.467508 80.220818 0.000000 5.472117 20.700853 0.000000 0.000000 0.000000 0.000000 0.000000 0.000000 0.000000 0.000000 0.000000 0.000000 0.000000 0.000000 0.000000 0.000000 0.000000 0.000000 0.000000 0.000000 0.000000
51.728049 0.012933 -47.339414 0.000000 0.000000 0.000000 97.153630 68.901610 0.000000 9.391718 20.596621 0.000000 0.000000 0.000000 0.000000 81.247071 79.858410 0.000000 5.688790 21.233775 0.000000 0.000000 0.000000 0.000000 0.000000 0.000000 0.000000 0.000000 0.000000 0.000000 0.000000 0.000000 0.000000 0.000000 0.000000 0.000000 0.000000 0.000000 0.000000
51.671463 0.012956 -47.341402 0.000000 0.000000 0.000000 96.640156 69.000352 0.000000 9.512852 20.702695 0.000000 0.000000 0.000000 0.000000 81.312892 79.800167 0.000000 5.720453 21.248535 0.000000 0.000000 0.000000 0.000000 0.000000 0.000000 0.000000 0.000000 0.000000 0.000000 0.000000 0.000000 0.000000 0.000000 0.000000 0.000000 0.000000 0.000000 0.000000
51.588377 0.012755 -47.342609 0.000000 0.000000 0.000000 96.065702 69.356729 0.000000 10.256159 21.574669 0.000000 0.000000 0.000000 0.000000 80.927027 79.614501 0.000000 6.076276 22.323715 0.000000 0.000000 0.000000 0.000000 0.000000 0.000000 0.000000 0.000000 0.000000 0.000000 0.000000 0.000000 0.000000 0.000000 0.000000 0.000000 0.000000 0.000000 0.000000
51.513940 0.012823 -47.341709 0.000000 0.000000 0.000000 95.081789 69.409626 0.000000 10.578255 21.942177 0.000000 0.000000 0.000000 0.000000 81.337071 79.630284 0.000000 6.230383 22.559716 0.000000 0.000000 0.000000 0.000000 0.000000 0.000000 0.000000 0.000000 0.000000 0.000000 0.000000 0.000000 0.000000 0.000000 0.000000 0.000000 0.000000 0.000000 0.000000
51.464696 0.012810 -47.336677 0.000000 0.000000 0.000000 94.339168 69.435700 0.000000 10.759497 22.176373 0.000000 0.000000 0.000000 0.000000 81.246570 79.501266 0.000000 6.414077 23.145080 0.000000 0.000000 0.000000 0.000000 0.000000 0.000000 0.000000 0.000000 0.000000 0.000000 0.000000 0.000000 0.000000 0.000000 0.000000 0.000000 0.000000 0.000000 0.000000
51.398079 0.012637 -47.335964 0.000000 0.000000 0.000000 92.965401 69.794578 0.000000 11.354532 22.690278 0.000000 0.000000 0.000000 0.000000 80.653569 79.351964 0.000000 6.520521 23.397760 0.000000 0.000000 0.000000 0.000000 0.000000 0.000000 0.000000 0.000000 0.000000 0.000000 0.000000 0.000000 0.000000 0.000000 0.000000 0.000000 0.000000 0.000000 0.000000
51.373196 0.012756 -47.335176 0.000000 0.000000 0.000000 92.456209 69.840868 0.000000 11.401438 22.760310 0.000000 0.000000 0.000000 0.000000 81.309786 79.321311 0.000000 6.547941 23.450036 0.000000 0.000000 0.000000 0.000000 0.000000 0.000000 0.000000 0.000000 0.000000 0.000000 0.000000 0.000000 0.000000 0.000000 0.000000 0.000000 0.000000 0.000000 0.000000
51.330984 0.012914 -47.335818 0.000000 0.000000 0.000000 89.632408 70.007998 0.000000 12.424579 24.343265 0.000000 0.000000 0.000000 0.000000 81.274937 79.110996 0.000000 7.089120 25.198559 0.000000 0.000000 0.000000 0.000000 0.000000 0.000000 0.000000 0.000000 0.000000 0.000000 0.000000 0.000000 0.000000 0.000000 0.000000 0.000000 0.000000 0.000000 0.000000
51.297452 0.012929 -47.350672 0.000000 0.000000 0.000000 80.420418 69.672404 0.000000 12.593099 24.626887 0.000000 0.000000 0.000000 0.000000 68.679785 78.345609 0.000000 6.953910 24.768445 0.000000 0.000000 0.000000 0.000000 0.000000 0.000000 0.000000 0.000000 0.000000 0.000000 0.000000 0.000000 0.000000 0.000000 0.000000 0.000000 0.000000 0.000000 0.000000
51.288423 0.012364 -47.351246 0.000000 0.000000 0.000000 78.880767 69.528288 0.000000 12.434053 24.355907 0.000000 0.000000 0.000000 0.000000 61.614821 77.683612 0.000000 6.840745 24.502015 0.000000 0.000000 0.000000 0.000000 0.000000 0.000000 0.000000 0.000000 0.000000 0.000000 0.000000 0.000000 0.000000 0.000000 0.000000 0.000000 0.000000 0.000000 0.000000
51.269650 0.012346 -47.352615 0.000000 0.000000 0.000000 73.458646 69.343222 0.000000 12.694060 24.515003 0.000000 0.000000 0.000000 0.000000 59.666622 77.365260 0.000000 6.846827 24.494688 0.000000 0.000000 0.000000 0.000000 0.000000 0.000000 0.000000 0.000000 0.000000 0.000000 0.000000 0.000000 0.000000 0.000000 0.000000 0.000000 0.000000 0.000000 0.000000
51.250617 0.011963 -47.352663 0.000000 0.000000 0.000000 72.195437 69.337395 0.000000 12.723266 24.421652 0.000000 0.000000 0.000000 0.000000 56.790655 76.890506 0.000000 6.882320 24.600037 0.000000 0.000000 0.000000 0.000000 0.000000 0.000000 0.000000 0.000000 0.000000 0.000000 0.000000 0.000000 0.000000 0.000000 0.000000 0.000000 0.000000 0.000000 0.000000
51.252736 0.012204 -47.351305 0.000000 0.000000 0.000000 72.154319 69.304703 0.000000 12.322837 23.813549 0.000000 0.000000 0.000000 0.000000 55.537580 76.846931 0.000000 6.667797 23.807963 0.000000 0.000000 0.000000 0.000000 0.000000 0.000000 0.000000 0.000000 0.000000 0.000000 0.000000 0.000000 0.000000 0.000000 0.000000 0.000000 0.000000 0.000000 0.000000
51.250899 0.012221 -47.344747 0.000000 0.000000 0.000000 72.137212 69.430749 0.000000 12.595779 24.160289 0.000000 0.000000 0.000000 0.000000 55.903467 76.906850 0.000000 6.807226 24.243671 0.000000 0.000000 0.000000 0.000000 0.000000 0.000000 0.000000 0.000000 0.000000 0.000000 0.000000 0.000000 0.000000 0.000000 0.000000 0.000000 0.000000 0.000000 0.000000
51.253211 0.012247 -47.333615 0.000000 0.000000 0.000000 72.395712 69.533963 0.000000 12.942775 24.675470 0.000000 0.000000 0.000000 0.000000 58.927747 77.289515 0.000000 6.975657 24.824297 0.000000 0.000000 0.000000 0.000000 0.000000 0.000000 0.000000 0.000000 0.000000 0.000000 0.000000 0.000000 0.000000 0.000000 0.000000 0.000000 0.000000 0.000000 0.000000
51.250724 0.012426 -47.329821 0.000000 0.000000 0.000000 71.959534 69.706701 0.000000 13.081590 24.722719 0.000000 0.000000 0.000000 0.000000 58.640627 77.250909 0.000000 7.051590 25.038077 0.000000 0.000000 0.000000 0.000000 0.000000 0.000000 0.000000 0.000000 0.000000 0.000000 0.000000 0.000000 0.000000 0.000000 0.000000 0.000000 0.000000 0.000000 0.000000
51.262811 0.012433 -47.319856 0.000000 0.000000 0.000000 72.065993 69.753270 0.000000 13.047885 24.674024 0.000000 0.000000 0.000000 0.000000 59.630127 77.415512 0.000000 7.010217 24.971705 0.000000 0.000000 0.000000 0.000000 0.000000 0.000000 0.000000 0.000000 0.000000 0.000000 0.000000 0.000000 0.000000 0.000000 0.000000 0.000000 0.000000 0.000000 0.000000
51.264113 0.012456 -47.319736 0.000000 0.000000 0.000000 72.047623 69.888296 0.000000 13.038736 24.571788 0.000000 0.000000 0.000000 0.000000 59.653972 77.397315 0.000000 6.992589 24.944496 0.000000 0.000000 0.000000 0.000000 0.000000 0.000000 0.000000 0.000000 0.000000 0.000000 0.000000 0.000000 0.000000 0.000000 0.000000 0.000000 0.000000 0.000000 0.000000
51.283757 0.012485 -47.296254 0.000000 0.000000 0.000000 72.950689 70.069081 0.000000 12.960944 24.464724 0.000000 0.000000 0.000000 0.000000 62.597792 77.812449 0.000000 6.867995 24.573311 0.000000 0.000000 0.000000 0.000000 0.000000 0.000000 0.000000 0.000000 0.000000 0.000000 0.000000 0.000000 0.000000 0.000000 0.000000 0.000000 0.000000 0.000000 0.000000
51.288669 0.012797 -47.287428 0.000000 0.000000 0.000000 73.897246 70.198646 0.000000 12.844457 24.270601 0.000000 0.000000 0.000000 0.000000 64.470146 77.900360 0.000000 6.745568 24.395904 0.000000 0.000000 0.000000 0.000000 0.000000 0.000000 0.000000 0.000000 0.000000 0.000000 0.000000 0.000000 0.000000 0.000000 0.000000 0.000000 0.000000 0.000000 0.000000
51.317972 0.012626 -47.154082 0.000000 0.000000 0.000000 80.803523 70.931764 0.000000 13.180940 24.890965 0.000000 0.000000 0.000000 0.000000 79.881193 78.993517 0.000000 6.949210 25.143036 0.000000 0.000000 0.000000 0.000000 0.000000 0.000000 0.000000 0.000000 0.000000 0.000000 0.000000 0.000000 0.000000 0.000000 0.000000 0.000000 0.000000 0.000000 0.000000
51.319697 0.012577 -47.151178 0.000000 0.000000 0.000000 86.568500 71.135295 0.000000 12.233482 23.329048 0.000000 0.000000 0.000000 0.000000 102.903376 78.872752 0.000000 6.518570 23.840322 0.000000 0.000000 0.000000 0.000000 0.000000 0.000000 0.000000 0.000000 0.000000 0.000000 0.000000 0.000000 0.000000 0.000000 0.000000 0.000000 0.000000 0.000000 0.000000
51.461048 0.013535 -47.258189 0.000000 0.000000 0.000000 80.712739 71.221718 0.000000 10.617444 20.682865 0.000000 0.000000 0.000000 0.000000 95.775298 79.301976 0.000000 5.606594 21.048758 0.000000 0.000000 0.000000 0.000000 0.000000 0.000000 0.000000 0.000000 0.000000 0.000000 0.000000 0.000000 0.000000 0.000000 0.000000 0.000000 0.000000 0.000000 0.000000
51.510517 0.014254 -47.252668 0.000000 0.000000 0.000000 82.809073 71.462046 0.000000 12.807307 24.337016 0.000000 0.000000 0.000000 0.000000 120.405374 77.928017 0.000000 6.555732 24.315717 0.000000 0.000000 0.000000 0.000000 0.000000 0.000000 0.000000 0.000000 0.000000 0.000000 0.000000 0.000000 0.000000 0.000000 0.000000 0.000000 0.000000 0.000000 0.000000
51.829116 0.013652 -47.263208 0.000000 0.000000 0.000000 134.908560 65.667517 0.000000 10.666272 20.793477 0.000000 0.000000 0.000000 0.000000 149.659697 72.536911 0.000000 5.951841 22.486228 0.000000 0.000000 0.000000 0.000000 0.000000 0.000000 0.000000 0.000000 0.000000 0.000000 0.000000 0.000000 0.000000 0.000000 0.000000 0.000000 0.000000 0.000000 0.000000
51.938465 0.014055 -47.316776 0.000000 0.000000 0.000000 145.004045 61.491773 0.000000 12.971006 24.427696 0.000000 0.000000 0.000000 0.000000 160.447332 65.679633 0.000000 6.590469 24.670700 0.000000 0.000000 0.000000 0.000000 0.000000 0.000000 0.000000 0.000000 0.000000 0.000000 0.000000 0.000000 0.000000 0.000000 0.000000 0.000000 0.000000 0.000000 0.000000
52.170700 0.015608 -47.438388 0.000000 0.000000 0.000000 139.525003 65.075140 0.000000 13.010926 24.546788 0.000000 0.000000 0.000000 0.000000 157.822276 69.721492 0.000000 6.611499 25.646310 0.000000 0.000000 0.000000 0.000000 0.000000 0.000000 0.000000 0.000000 0.000000 0.000000 0.000000 0.000000 0.000000 0.000000 0.000000 0.000000 0.000000 0.000000 0.000000
52.255797 0.016778 -47.441597 0.000000 0.000000 0.000000 149.670219 59.782417 0.000000 11.656008 22.143696 0.000000 0.000000 0.000000 0.000000 162.923557 64.558210 0.000000 5.688773 22.738427 0.000000 0.000000 0.000000 0.000000 0.000000 0.000000 0.000000 0.000000 0.000000 0.000000 0.000000 0.000000 0.000000 0.000000 0.000000 0.000000 0.000000 0.000000 0.000000
52.459899 0.018324 -47.493686 0.000000 0.000000 0.000000 148.426773 61.589674 0.000000 10.717469 20.946116 0.000000 0.000000 0.000000 0.000000 161.459925 66.422070 0.000000 5.508130 22.491068 0.000000 0.000000 0.000000 0.000000 0.000000 0.000000 0.000000 0.000000 0.000000 0.000000 0.000000 0.000000 0.000000 0.000000 0.000000 0.000000 0.000000 0.000000 0.000000
52.724817 0.017788 -47.496615 0.000000 0.000000 0.000000 148.516974 62.968088 0.000000 10.583317 21.019531 0.000000 0.000000 0.000000 0.000000 161.696115 66.700812 0.000000 5.264299 22.322295 0.000000 0.000000 0.000000 0.000000 0.000000 0.000000 0.000000 0.000000 0.000000 0.000000 0.000000 0.000000 0.000000 0.000000 0.000000 0.000000 0.000000 0.000000 0.000000
53.065661 0.016907 -47.502446 0.000000 0.000000 0.000000 148.943874 63.884503 0.000000 10.033335 20.436931 0.000000 0.000000 0.000000 0.000000 161.844686 67.683833 0.000000 4.812387 21.549961 0.000000 0.000000 0.000000 0.000000 0.000000 0.000000 0.000000 0.000000 0.000000 0.000000 0.000000 0.000000 0.000000 0.000000 0.000000 0.000000 0.000000 0.000000 0.000000
53.359756 0.014320 -47.512865 0.000000 0.000000 0.000000 153.527520 61.509161 0.000000 9.832090 19.900128 0.000000 0.000000 0.000000 0.000000 164.125366 67.769887 0.000000 4.522956 20.740407 0.000000 0.000000 0.000000 0.000000 0.000000 0.000000 0.000000 0.000000 0.000000 0.000000 0.000000 0.000000 0.000000 0.000000 0.000000 0.000000 0.000000 0.000000 0.000000
53.840759 0.010238 -47.483850 0.000000 0.000000 0.000000 158.636975 58.005585 0.000000 9.314883 19.466341 0.000000 0.000000 0.000000 0.000000 169.246432 66.812227 0.000000 4.509373 20.821027 0.000000 0.000000 0.000000 0.000000 0.000000 0.000000 0.000000 0.000000 0.000000 0.000000 0.000000 0.000000 0.000000 0.000000 0.000000 0.000000 0.000000 0.000000 0.000000
54.319921 0.010153 -47.380556 0.000000 0.000000 0.000000 159.985804 58.221794 0.000000 9.373898 19.881641 0.000000 0.000000 0.000000 0.000000 173.130618 64.891466 0.000000 4.451975 22.019331 0.000000 0.000000 0.000000 0.000000 0.000000 0.000000 0.000000 0.000000 0.000000 0.000000 0.000000 0.000000 0.000000 0.000000 0.000000 0.000000 0.000000 0.000000 0.000000
54.659753 0.010166 -47.179611 0.000000 0.000000 0.000000 160.035803 58.996841 0.000000 11.405565 24.244502 0.000000 0.000000 0.000000 0.000000 174.343195 62.691677 0.000000 5.047417 27.389395 0.000000 0.000000 0.000000 0.000000 0.000000 0.000000 0.000000 0.000000 0.000000 0.000000 0.000000 0.000000 0.000000 0.000000 0.000000 0.000000 0.000000 0.000000 0.000000
55.107456 0.009369 -47.030315 0.000000 0.000000 0.000000 160.650263 58.607621 0.000000 10.443481 23.895044 0.000000 0.000000 0.000000 0.000000 174.447080 63.488494 0.000000 4.146039 27.047390 0.000000 0.000000 0.000000 0.000000 0.000000 0.000000 0.000000 0.000000 0.000000 0.000000 0.000000 0.000000 0.000000 0.000000 0.000000 0.000000 0.000000 0.000000 0.000000
55.574088 0.009961 -46.922627 0.000000 0.000000 0.000000 161.987079 57.568699 0.000000 9.256410 22.882377 0.000000 0.000000 0.000000 0.000000 175.669519 64.347009 0.000000 3.316279 25.375096 0.000000 0.000000 0.000000 0.000000 0.000000 0.000000 0.000000 0.000000 0.000000 0.000000 0.000000 0.000000 0.000000 0.000000 0.000000 0.000000 0.000000 0.000000 0.000000
56.268309 0.008719 -46.848261 0.000000 0.000000 0.000000 165.013792 55.624539 0.000000 8.367235 22.448378 0.000000 0.000000 0.000000 0.000000 179.323941 64.863802 0.000000 3.037977 25.854529 0.000000 0.000000 0.000000 0.000000 0.000000 0.000000 0.000000 0.000000 0.000000 0.000000 0.000000 0.000000 0.000000 0.000000 0.000000 0.000000 0.000000 0.000000 0.000000
56.858072 0.007685 -46.748626 0.000000 0.000000 0.000000 167.013499 55.357215 0.000000 8.073169 22.273352 0.000000 0.000000 0.000000 0.000000 -177.922558 64.761648 0.000000 2.740647 27.477924 0.000000 0.000000 0.000000 0.000000 0.000000 0.000000 0.000000 0.000000 0.000000 0.000000 0.000000 0.000000 0.000000 0.000000 0.000000 0.000000 0.000000 0.000000 0.000000
57.410756 0.006243 -46.666448 0.000000 0.000000 0.000000 167.294146 55.560513 0.000000 6.828583 20.537045 0.000000 0.000000 0.000000 0.000000 -174.141843 65.533904 0.000000 2.494692 27.386441 0.000000 0.000000 0.000000 0.000000 0.000000 0.000000 0.000000 0.000000 0.000000 0.000000 0.000000 0.000000 0.000000 0.000000 0.000000 0.000000 0.000000 0.000000 0.000000
58.035234 0.003329 -46.605588 0.000000 0.000000 0.000000 167.997276 56.282748 0.000000 6.315141 20.825262 0.000000 0.000000 0.000000 0.000000 -170.203779 65.472699 0.000000 2.229601 27.274717 0.000000 0.000000 0.000000 0.000000 0.000000 0.000000 0.000000 0.000000 0.000000 0.000000 0.000000 0.000000 0.000000 0.000000 0.000000 0.000000 0.000000 0.000000 0.000000
58.623925 0.002087 -46.605316 0.000000 0.000000 0.000000 168.777660 58.310536 0.000000 6.261813 21.475957 0.000000 0.000000 0.000000 0.000000 -167.220996 65.795510 0.000000 1.798491 28.424590 0.000000 0.000000 0.000000 0.000000 0.000000 0.000000 0.000000 0.000000 0.000000 0.000000 0.000000 0.000000 0.000000 0.000000 0.000000 0.000000 0.000000 0.000000 0.000000
59.267610 0.000777 -46.589884 0.000000 0.000000 0.000000 168.995269 60.411445 0.000000 5.736293 22.253123 0.000000 0.000000 0.000000 0.000000 -163.704634 66.049144 0.000000 1.394430 28.324647 0.000000 0.000000 0.000000 0.000000 0.000000 0.000000 0.000000 0.000000 0.000000 0.000000 0.000000 0.000000 0.000000 0.000000 0.000000 0.000000 0.000000 0.000000 0.000000
59.993711 0.000145 -46.572663 0.000000 0.000000 0.000000 167.283839 65.611264 0.000000 4.864416 22.549590 0.000000 0.000000 0.000000 0.000000 -158.296920 67.716180 0.000000 0.908170 27.858990 0.000000 0.000000 0.000000 0.000000 0.000000 0.000000 0.000000 0.000000 0.000000 0.000000 0.000000 0.000000 0.000000 0.000000 0.000000 0.000000 0.000000 0.000000 0.000000
60.727102 -0.000064 -46.583374 0.000000 0.000000 0.000000 166.387105 66.452135 0.000000 3.613962 21.331597 0.000000 0.000000 0.000000 0.000000 -150.161753 68.736520 0.000000 0.987444 27.029352 0.000000 0.000000 0.000000 0.000000 0.000000 0.000000 0.000000 0.000000 0.000000 0.000000 0.000000 0.000000 0.000000 0.000000 0.000000 0.000000 0.000000 0.000000 0.000000
61.331490 0.000914 -46.768935 0.000000 0.000000 0.000000 168.549573 66.150370 0.000000 3.073865 19.604334 0.000000 0.000000 0.000000 0.000000 -142.515772 68.809323 0.000000 1.102124 23.808849 0.000000 0.000000 0.000000 0.000000 0.000000 0.000000 0.000000 0.000000 0.000000 0.000000 0.000000 0.000000 0.000000 0.000000 0.000000 0.000000 0.000000 0.000000 0.000000
61.941007 0.001579 -47.014557 0.000000 0.000000 0.000000 171.900810 66.105875 0.000000 2.832203 18.975606 0.000000 0.000000 0.000000 0.000000 -143.014713 65.281953 0.000000 1.548498 23.301502 0.000000 0.000000 0.000000 0.000000 0.000000 0.000000 0.000000 0.000000 0.000000 0.000000 0.000000 0.000000 0.000000 0.000000 0.000000 0.000000 0.000000 0.000000 0.000000
62.474546 0.000815 -47.377682 0.000000 0.000000 0.000000 174.197051 66.026018 0.000000 2.418851 17.163330 0.000000 0.000000 0.000000 0.000000 -146.839920 60.188429 0.000000 1.813123 22.207298 0.000000 0.000000 0.000000 0.000000 0.000000 0.000000 0.000000 0.000000 0.000000 0.000000 0.000000 0.000000 0.000000 0.000000 0.000000 0.000000 0.000000 0.000000 0.000000
63.012725 0.000634 -47.583106 0.000000 0.000000 0.000000 172.183409 64.732756 0.000000 1.492015 16.998888 0.000000 0.000000 0.000000 0.000000 -146.668345 57.654198 0.000000 1.759388 20.989749 0.000000 0.000000 0.000000 0.000000 0.000000 0.000000 0.000000 0.000000 0.000000 0.000000 0.000000 0.000000 0.000000 0.000000 0.000000 0.000000 0.000000 0.000000 0.000000
63.396731 0.000914 -47.773720 0.000000 0.000000 0.000000 174.316634 65.626268 0.000000 1.487150 16.982605 0.000000 0.000000 0.000000 0.000000 -145.973449 56.711699 0.000000 1.688417 21.057045 0.000000 0.000000 0.000000 0.000000 0.000000 0.000000 0.000000 0.000000 0.000000 0.000000 0.000000 0.000000 0.000000 0.000000 0.000000 0.000000 0.000000 0.000000 0.000000
63.834620 0.001015 -47.826509 0.000000 0.000000 0.000000 177.303229 66.700494 0.000000 1.513374 17.241076 0.000000 0.000000 0.000000 0.000000 -144.644141 56.834415 0.000000 1.293388 21.042898 0.000000 0.000000 0.000000 0.000000 0.000000 0.000000 0.000000 0.000000 0.000000 0.000000 0.000000 0.000000 0.000000 0.000000 0.000000 0.000000 0.000000 0.000000 0.000000
64.163080 0.000765 -47.829391 0.000000 0.000000 0.000000 179.898814 67.957807 0.000000 1.521759 16.835909 0.000000 0.000000 0.000000 0.000000 -141.991759 58.646165 0.000000 0.713559 20.380487 0.000000 0.000000 0.000000 0.000000 0.000000 0.000000 0.000000 0.000000 0.000000 0.000000 0.000000 0.000000 0.000000 0.000000 0.000000 0.000000 0.000000 0.000000 0.000000
64.370644 0.000124 -47.808553 0.000000 0.000000 0.000000 -179.056796 67.617665 0.000000 1.465435 17.163202 0.000000 0.000000 0.000000 0.000000 -138.546512 60.644498 0.000000 0.393442 21.006339 0.000000 0.000000 0.000000 0.000000 0.000000 0.000000 0.000000 0.000000 0.000000 0.000000 0.000000 0.000000 0.000000 0.000000 0.000000 0.000000 0.000000 0.000000 0.000000
64.585385 -0.000100 -47.788867 0.000000 0.000000 0.000000 -176.941142 66.139757 0.000000 1.530839 17.251764 0.000000 0.000000 0.000000 0.000000 -136.386457 61.393756 0.000000 0.169047 21.203155 0.000000 0.000000 0.000000 0.000000 0.000000 0.000000 0.000000 0.000000 0.000000 0.000000 0.000000 0.000000 0.000000 0.000000 0.000000 0.000000 0.000000 0.000000 0.000000
64.692274 -0.000214 -47.734007 0.000000 0.000000 0.000000 -175.994597 64.853766 0.000000 1.728852 17.240875 0.000000 0.000000 0.000000 0.000000 -135.901839 62.062227 0.000000 -0.134666 21.441835 0.000000 0.000000 0.000000 0.000000 0.000000 0.000000 0.000000 0.000000 0.000000 0.000000 0.000000 0.000000 0.000000 0.000000 0.000000 0.000000 0.000000 0.000000 0.000000
64.845631 -0.000471 -47.706935 0.000000 0.000000 0.000000 -175.273093 64.245493 0.000000 1.660739 17.269593 0.000000 0.000000 0.000000 0.000000 -134.124178 63.171938 0.000000 -0.395209 21.484048 0.000000 0.000000 0.000000 0.000000 0.000000 0.000000 0.000000 0.000000 0.000000 0.000000 0.000000 0.000000 0.000000 0.000000 0.000000 0.000000 0.000000 0.000000 0.000000
64.943233 -0.000628 -47.696133 0.000000 0.000000 0.000000 -174.284384 64.812590 0.000000 1.737554 17.328662 0.000000 0.000000 0.000000 0.000000 -137.749188 61.869382 0.000000 -0.584723 22.622534 0.000000 0.000000 0.000000 0.000000 0.000000 0.000000 0.000000 0.000000 0.000000 0.000000 0.000000 0.000000 0.000000 0.000000 0.000000 0.000000 0.000000 0.000000 0.000000
65.042990 -0.000312 -47.688738 0.000000 0.000000 0.000000 -173.262253 66.833896 0.000000 1.711521 17.470358 0.000000 0.000000 0.000000 0.000000 -143.943703 58.781979 0.000000 -0.818750 23.403826 0.000000 0.000000 0.000000 0.000000 0.000000 0.000000 0.000000 0.000000 0.000000 0.000000 0.000000 0.000000 0.000000 0.000000 0.000000 0.000000 0.000000 0.000000 0.000000
65.146723 -0.000239 -47.675441 0.000000 0.000000 0.000000 -173.519533 66.951205 0.000000 1.610978 17.920891 0.000000 0.000000 0.000000 0.000000 -144.752293 58.808823 0.000000 -1.246636 24.300791 0.000000 0.000000 0.000000 0.000000 0.000000 0.000000 0.000000 0.000000 0.000000 0.000000 0.000000 0.000000 0.000000 0.000000 0.000000 0.000000 0.000000 0.000000 0.000000
65.176129 -0.000279 -47.631060 0.000000 0.000000 0.000000 -173.801273 66.681142 0.000000 1.667953 18.534408 0.000000 0.000000 0.000000 0.000000 -144.986476 59.411226 0.000000 -1.565191 24.562902 0.000000 0.000000 0.000000 0.000000 0.000000 0.000000 0.000000 0.000000 0.000000 0.000000 0.000000 0.000000 0.000000 0.000000 0.000000 0.000000 0.000000 0.000000 0.000000
65.160826 -0.000427 -47.625695 0.000000 0.000000 0.000000 -174.624447 65.974429 0.000000 1.691313 18.828358 0.000000 0.000000 0.000000 0.000000 -140.794391 62.223801 0.000000 -1.739819 25.000547 0.000000 0.000000 0.000000 0.000000 0.000000 0.000000 0.000000 0.000000 0.000000 0.000000 0.000000 0.000000 0.000000 0.000000 0.000000 0.000000 0.000000 0.000000 0.000000
65.149438 -0.000440 -47.590154 0.000000 0.000000 0.000000 -175.195536 65.929837 0.000000 1.575417 18.163786 0.000000 0.000000 0.000000 0.000000 -133.333824 66.019422 0.000000 -1.697351 22.944139 0.000000 0.000000 0.000000 0.000000 0.000000 0.000000 0.000000 0.000000 0.000000 0.000000 0.000000 0.000000 0.000000 0.000000 0.000000 0.000000 0.000000 0.000000 0.000000
65.124732 -0.000465 -47.552341 0.000000 0.000000 0.000000 -175.643582 65.922577 0.000000 1.537703 18.064145 0.000000 0.000000 0.000000 0.000000 -128.578195 68.208279 0.000000 -1.848129 22.735105 0.000000 0.000000 0.000000 0.000000 0.000000 0.000000 0.000000 0.000000 0.000000 0.000000 0.000000 0.000000 0.000000 0.000000 0.000000 0.000000 0.000000 0.000000 0.000000
65.104285 -0.000874 -47.520296 0.000000 0.000000 0.000000 -176.506266 67.905991 0.000000 1.293458 17.135636 0.000000 0.000000 0.000000 0.000000 -120.425771 70.599615 0.000000 -1.974871 22.125990 0.000000 0.000000 0.000000 0.000000 0.000000 0.000000 0.000000 0.000000 0.000000 0.000000 0.000000 0.000000 0.000000 0.000000 0.000000 0.000000 0.000000 0.000000 0.000000
65.029603 -0.000633 -47.479832 0.000000 0.000000 0.000000 -177.156538 68.324318 0.000000 1.298413 17.503765 0.000000 0.000000 0.000000 0.000000 -119.932386 71.485931 0.000000 -2.184371 22.613671 0.000000 0.000000 0.000000 0.000000 0.000000 0.000000 0.000000 0.000000 0.000000 0.000000 0.000000 0.000000 0.000000 0.000000 0.000000 0.000000 0.000000 0.000000 0.000000
64.855659 -0.000899 -47.408186 0.000000 0.000000 0.000000 -178.799030 68.738463 0.000000 1.250671 17.691473 0.000000 0.000000 0.000000 0.000000 -120.993632 72.348435 0.000000 -2.361318 22.887934 0.000000 0.000000 0.000000 0.000000 0.000000 0.000000 0.000000 0.000000 0.000000 0.000000 0.000000 0.000000 0.000000 0.000000 0.000000 0.000000 0.000000 0.000000 0.000000
64.605582 -0.000373 -47.332926 0.000000 0.000000 0.000000 179.461541 68.207346 0.000000 1.286071 17.837333 0.000000 0.000000 0.000000 0.000000 -122.429851 73.112178 0.000000 -2.336459 22.628392 0.000000 0.000000 0.000000 0.000000 0.000000 0.000000 0.000000 0.000000 0.000000 0.000000 0.000000 0.000000 0.000000 0.000000 0.000000 0.000000 0.000000 0.000000 0.000000
64.211673 -0.000879 -47.253433 0.000000 0.000000 0.000000 175.795759 68.527955 0.000000 1.120672 18.178748 0.000000 0.000000 0.000000 0.000000 -125.526039 73.969435 0.000000 -2.189216 22.045623 0.000000 0.000000 0.000000 0.000000 0.000000 0.000000 0.000000 0.000000 0.000000 0.000000 0.000000 0.000000 0.000000 0.000000 0.000000 0.000000 0.000000 0.000000 0.000000
63.775733 -0.000782 -47.180390 0.000000 0.000000 0.000000 173.033539 67.905822 0.000000 1.185545 19.265900 0.000000 0.000000 0.000000 0.000000 -129.977467 74.773073 0.000000 -2.164620 22.188166 0.000000 0.000000 0.000000 0.000000 0.000000 0.000000 0.000000 0.000000 0.000000 0.000000 0.000000 0.000000 0.000000 0.000000 0.000000 0.000000 0.000000 0.000000 0.000000
63.266078 -0.000966 -47.120942 0.000000 0.000000 0.000000 169.650495 67.758046 0.000000 1.308186 20.281231 0.000000 0.000000 0.000000 0.000000 -133.976814 75.663201 0.000000 -2.181339 23.810484 0.000000 0.000000 0.000000 0.000000 0.000000 0.000000 0.000000 0.000000 0.000000 0.000000 0.000000 0.000000 0.000000 0.000000 0.000000 0.000000 0.000000 0.000000 0.000000
62.789288 -0.001234 -47.068715 0.000000 0.000000 0.000000 167.955345 67.542360 0.000000 1.432215 20.358222 0.000000 0.000000 0.000000 0.000000 -137.869828 76.072465 0.000000 -1.880378 24.233071 0.000000 0.000000 0.000000 0.000000 0.000000 0.000000 0.000000 0.000000 0.000000 0.000000 0.000000 0.000000 0.000000 0.000000 0.000000 0.000000 0.000000 0.000000 0.000000
62.284356 -0.001441 -47.022387 0.000000 0.000000 0.000000 166.413721 67.380550 0.000000 1.838128 20.871256 0.000000 0.000000 0.000000 0.000000 -143.241814 75.726034 0.000000 -1.572614 24.965411 0.000000 0.000000 0.000000 0.000000 0.000000 0.000000 0.000000 0.000000 0.000000 0.000000 0.000000 0.000000 0.000000 0.000000 0.000000 0.000000 0.000000 0.000000 0.000000
61.711499 -0.001572 -46.966740 0.000000 0.000000 0.000000 163.843422 67.072295 0.000000 2.123088 19.933814 0.000000 0.000000 0.000000 0.000000 -144.385452 75.943452 0.000000 -0.796126 23.670357 0.000000 0.000000 0.000000 0.000000 0.000000 0.000000 0.000000 0.000000 0.000000 0.000000 0.000000 0.000000 0.000000 0.000000 0.000000 0.000000 0.000000 0.000000 0.000000
61.173099 -0.001642 -46.952116 0.000000 0.000000 0.000000 164.579093 65.843469 0.000000 2.611934 19.675333 0.000000 0.000000 0.000000 0.000000 -149.500174 75.722718 0.000000 -0.649869 23.327514 0.000000 0.000000 0.000000 0.000000 0.000000 0.000000 0.000000 0.000000 0.000000 0.000000 0.000000 0.000000 0.000000 0.000000 0.000000 0.000000 0.000000 0.000000 0.000000
60.654199 -0.001480 -46.881275 0.000000 0.000000 0.000000 164.667537 65.886388 0.000000 3.141080 19.380360 0.000000 0.000000 0.000000 0.000000 -152.693790 76.152456 0.000000 -0.436915 22.619079 0.000000 0.000000 0.000000 0.000000 0.000000 0.000000 0.000000 0.000000 0.000000 0.000000 0.000000 0.000000 0.000000 0.000000 0.000000 0.000000 0.000000 0.000000 0.000000
60.034621 -0.001179 -46.854289 0.000000 0.000000 0.000000 162.440129 65.763115 0.000000 3.366812 18.934313 0.000000 0.000000 0.000000 0.000000 -156.647737 76.903945 0.000000 -0.174839 21.848658 0.000000 0.000000 0.000000 0.000000 0.000000 0.000000 0.000000 0.000000 0.000000 0.000000 0.000000 0.000000 0.000000 0.000000 0.000000 0.000000 0.000000 0.000000 0.000000
59.420079 -0.000709 -46.851397 0.000000 0.000000 0.000000 162.080076 64.609981 0.000000 3.834572 18.691304 0.000000 0.000000 0.000000 0.000000 -159.844276 76.888313 0.000000 0.370232 21.777416 0.000000 0.000000 0.000000 0.000000 0.000000 0.000000 0.000000 0.000000 0.000000 0.000000 0.000000 0.000000 0.000000 0.000000 0.000000 0.000000 0.000000 0.000000 0.000000
58.788809 -0.000063 -46.866857 0.000000 0.000000 0.000000 160.096747 63.861068 0.000000 4.184853 18.539420 0.000000 0.000000 0.000000 0.000000 -162.862340 77.025549 0.000000 0.860944 21.801333 0.000000 0.000000 0.000000 0.000000 0.000000 0.000000 0.000000 0.000000 0.000000 0.000000 0.000000 0.000000 0.000000 0.000000 0.000000 0.000000 0.000000 0.000000 0.000000
58.230853 0.000897 -46.906322 0.000000 0.000000 0.000000 159.943400 62.359309 0.000000 4.584746 18.172913 0.000000 0.000000 0.000000 0.000000 -166.754362 76.145673 0.000000 1.237391 21.698681 0.000000 0.000000 0.000000 0.000000 0.000000 0.000000 0.000000 0.000000 0.000000 0.000000 0.000000 0.000000 0.000000 0.000000 0.000000 0.000000 0.000000 0.000000 0.000000
57.668966 0.001747 -46.933208 0.000000 0.000000 0.000000 159.024445 62.278148 0.000000 5.081755 18.154925 0.000000 0.000000 0.000000 0.000000 -170.756027 76.134657 0.000000 1.408584 21.241640 0.000000 0.000000 0.000000 0.000000 0.000000 0.000000 0.000000 0.000000 0.000000 0.000000 0.000000 0.000000 0.000000 0.000000 0.000000 0.000000 0.000000 0.000000 0.000000
57.042813 0.003363 -46.970055 0.000000 0.000000 0.000000 158.277795 61.414147 0.000000 5.581664 18.048839 0.000000 0.000000 0.000000 0.000000 -173.547226 75.649637 0.000000 1.924309 21.052139 0.000000 0.000000 0.000000 0.000000 0.000000 0.000000 0.000000 0.000000 0.000000 0.000000 0.000000 0.000000 0.000000 0.000000 0.000000 0.000000 0.000000 0.000000 0.000000
56.443289 0.003254 -47.000042 0.000000 0.000000 0.000000 158.778048 60.589824 0.000000 6.207238 17.804168 0.000000 0.000000 0.000000 0.000000 -174.626243 75.092135 0.000000 2.555375 20.349114 0.000000 0.000000 0.000000 0.000000 0.000000 0.000000 0.000000 0.000000 0.000000 0.000000 0.000000 0.000000 0.000000 0.000000 0.000000 0.000000 0.000000 0.000000 0.000000
55.827460 0.003286 -47.044517 0.000000 0.000000 0.000000 157.865003 60.093472 0.000000 6.609595 17.680416 0.000000 0.000000 0.000000 0.000000 -178.019295 74.604781 0.000000 3.096763 20.338014 0.000000 0.000000 0.000000 0.000000 0.000000 0.000000 0.000000 0.000000 0.000000 0.000000 0.000000 0.000000 0.000000 0.000000 0.000000 0.000000 0.000000 0.000000 0.000000
55.219796 0.003795 -47.113580 0.000000 0.000000 0.000000 154.755643 59.725748 0.000000 6.471792 17.138585 0.000000 0.000000 0.000000 0.000000 178.682542 74.428183 0.000000 3.531598 20.058182 0.000000 0.000000 0.000000 0.000000 0.000000 0.000000 0.000000 0.000000 0.000000 0.000000 0.000000 0.000000 0.000000 0.000000 0.000000 0.000000 0.000000 0.000000 0.000000
54.647198 0.003957 -47.185144 0.000000 0.000000 0.000000 153.548259 58.239252 0.000000 6.463220 16.952536 0.000000 0.000000 0.000000 0.000000 175.160481 72.981866 0.000000 3.884141 19.844899 0.000000 0.000000 0.000000 0.000000 0.000000 0.000000 0.000000 0.000000 0.000000 0.000000 0.000000 0.000000 0.000000 0.000000 0.000000 0.000000 0.000000 0.000000 0.000000
54.045691 0.003971 -47.250511 0.000000 0.000000 0.000000 150.903570 57.853723 0.000000 6.433707 16.841341 0.000000 0.000000 0.000000 0.000000 173.515996 73.013493 0.000000 4.483733 19.842503 0.000000 0.000000 0.000000 0.000000 0.000000 0.000000 0.000000 0.000000 0.000000 0.000000 0.000000 0.000000 0.000000 0.000000 0.000000 0.000000 0.000000 0.000000 0.000000
53.433311 0.003904 -47.342357 0.000000 0.000000 0.000000 148.010234 57.046778 0.000000 6.302114 16.749241 0.000000 0.000000 0.000000 0.000000 170.282732 72.860395 0.000000 4.818893 19.826158 0.000000 0.000000 0.000000 0.000000 0.000000 0.000000 0.000000 0.000000 0.000000 0.000000 0.000000 0.000000 0.000000 0.000000 0.000000 0.000000 0.000000 0.000000 0.000000
53.013954 0.003776 -47.500633 0.000000 0.000000 0.000000 146.005472 56.383301 0.000000 6.450708 17.299399 0.000000 0.000000 0.000000 0.000000 173.206611 73.041066 0.000000 5.713413 19.804833 0.000000 0.000000 0.000000 0.000000 0.000000 0.000000 0.000000 0.000000 0.000000 0.000000 0.000000 0.000000 0.000000 0.000000 0.000000 0.000000 0.000000 0.000000 0.000000
52.644609 0.002685 -47.662804 0.000000 0.000000 0.000000 144.261628 56.278232 0.000000 6.561850 17.262908 0.000000 0.000000 0.000000 0.000000 170.653178 75.169927 0.000000 5.929776 19.686289 0.000000 0.000000 0.000000 0.000000 0.000000 0.000000 0.000000 0.000000 0.000000 0.000000 0.000000 0.000000 0.000000 0.000000 0.000000 0.000000 0.000000 0.000000 0.000000
52.348791 0.001901 -47.788811 0.000000 0.000000 0.000000 141.940890 57.377744 0.000000 6.810249 17.288125 0.000000 0.000000 0.000000 0.000000 162.514206 78.075032 0.000000 5.738732 19.599848 0.000000 0.000000 0.000000 0.000000 0.000000 0.000000 0.000000 0.000000 0.000000 0.000000 0.000000 0.000000 0.000000 0.000000 0.000000 0.000000 0.000000 0.000000 0.000000
52.138601 0.002205 -47.871961 0.000000 0.000000 0.000000 140.487538 58.076536 0.000000 7.118724 17.291238 0.000000 0.000000 0.000000 0.000000 159.982212 78.776842 0.000000 5.785193 19.558512 0.000000 0.000000 0.000000 0.000000 0.000000 0.000000 0.000000 0.000000 0.000000 0.000000 0.000000 0.000000 0.000000 0.000000 0.000000 0.000000 0.000000 0.000000 0.000000
51.910870 0.004148 -47.887641 0.000000 0.000000 0.000000 139.305048 58.289535 0.000000 7.233610 17.180686 0.000000 0.000000 0.000000 0.000000 158.283473 78.576132 0.000000 5.803853 19.290240 0.000000 0.000000 0.000000 0.000000 0.000000 0.000000 0.000000 0.000000 0.000000 0.000000 0.000000 0.000000 0.000000 0.000000 0.000000 0.000000 0.000000 0.000000 0.000000
51.720817 0.004298 -47.882120 0.000000 0.000000 0.000000 139.483915 57.961758 0.000000 7.430852 17.269247 0.000000 0.000000 0.000000 0.000000 154.710867 78.101544 0.000000 5.768114 19.308583 0.000000 0.000000 0.000000 0.000000 0.000000 0.000000 0.000000 0.000000 0.000000 0.000000 0.000000 0.000000 0.000000 0.000000 0.000000 0.000000 0.000000 0.000000 0.000000
51.561977 0.005082 -47.876348 0.000000 0.000000 0.000000 140.389158 57.787363 0.000000 7.673936 17.135196 0.000000 0.000000 0.000000 0.000000 155.988342 76.483334 0.000000 5.766452 19.159304 0.000000 0.000000 0.000000 0.000000 0.000000 0.000000 0.000000 0.000000 0.000000 0.000000 0.000000 0.000000 0.000000 0.000000 0.000000 0.000000 0.000000 0.000000 0.000000
51.481812 0.005926 -47.865088 0.000000 0.000000 0.000000 140.109362 58.156049 0.000000 7.822254 17.089849 0.000000 0.000000 0.000000 0.000000 156.812762 75.615879 0.000000 5.697348 18.903653 0.000000 0.000000 0.000000 0.000000 0.000000 0.000000 0.000000 0.000000 0.000000 0.000000 0.000000 0.000000 0.000000 0.000000 0.000000 0.000000 0.000000 0.000000 0.000000
51.463597 0.006035 -47.862267 0.000000 0.000000 0.000000 139.993273 58.415415 0.000000 7.889192 17.101124 0.000000 0.000000 0.000000 0.000000 156.536033 75.398622 0.000000 5.676134 18.919812 0.000000 0.000000 0.000000 0.000000 0.000000 0.000000 0.000000 0.000000 0.000000 0.000000 0.000000 0.000000 0.000000 0.000000 0.000000 0.000000 0.000000 0.000000 0.000000
51.449294 0.005794 -47.867620 0.000000 0.000000 0.000000 140.033633 58.635162 0.000000 7.785616 16.939269 0.000000 0.000000 0.000000 0.000000 155.117408 75.706548 0.000000 5.581210 18.809778 0.000000 0.000000 0.000000 0.000000 0.000000 0.000000 0.000000 0.000000 0.000000 0.000000 0.000000 0.000000 0.000000 0.000000 0.000000 0.000000 0.000000 0.000000 0.000000
51.413070 0.005499 -47.873086 0.000000 0.000000 0.000000 139.837072 58.591877 0.000000 7.825764 17.162789 0.000000 0.000000 0.000000 0.000000 154.429784 75.516523 0.000000 5.649107 19.107354 0.000000 0.000000 0.000000 0.000000 0.000000 0.000000 0.000000 0.000000 0.000000 0.000000 0.000000 0.000000 0.000000 0.000000 0.000000 0.000000 0.000000 0.000000 0.000000
51.389924 0.005114 -47.874226 0.000000 0.000000 0.000000 139.415029 58.947204 0.000000 7.851137 17.160494 0.000000 0.000000 0.000000 0.000000 153.632532 75.534757 0.000000 5.585584 19.031318 0.000000 0.000000 0.000000 0.000000 0.000000 0.000000 0.000000 0.000000 0.000000 0.000000 0.000000 0.000000 0.000000 0.000000 0.000000 0.000000 0.000000 0.000000 0.000000
51.373918 0.004663 -47.874647 0.000000 0.000000 0.000000 139.320733 59.129529 0.000000 7.964364 17.389260 0.000000 0.000000 0.000000 0.000000 153.619392 75.207624 0.000000 5.559706 19.051854 0.000000 0.000000 0.000000 0.000000 0.000000 0.000000 0.000000 0.000000 0.000000 0.000000 0.000000 0.000000 0.000000 0.000000 0.000000 0.000000 0.000000 0.000000 0.000000
51.372780 0.005350 -47.871728 0.000000 0.000000 0.000000 139.230409 59.248505 0.000000 8.057727 17.580338 0.000000 0.000000 0.000000 0.000000 153.612414 74.987419 0.000000 5.629971 19.363693 0.000000 0.000000 0.000000 0.000000 0.000000 0.000000 0.000000 0.000000 0.000000 0.000000 0.000000 0.000000 0.000000 0.000000 0.000000 0.000000 0.000000 0.000000 0.000000
51.379234 0.005614 -47.863497 0.000000 0.000000 0.000000 139.287208 59.289813 0.000000 8.158678 17.777553 0.000000 0.000000 0.000000 0.000000 153.393618 74.940116 0.000000 5.780467 19.954110 0.000000 0.000000 0.000000 0.000000 0.000000 0.000000 0.000000 0.000000 0.000000 0.000000 0.000000 0.000000 0.000000 0.000000 0.000000 0.000000 0.000000 0.000000 0.000000
51.392689 0.005388 -47.854282 0.000000 0.000000 0.000000 138.908174 59.591349 0.000000 8.085599 17.623506 0.000000 0.000000 0.000000 0.000000 152.699799 75.220639 0.000000 5.725815 19.647485 0.000000 0.000000 0.000000 0.000000 0.000000 0.000000 0.000000 0.000000 0.000000 0.000000 0.000000 0.000000 0.000000 0.000000 0.000000 0.000000 0.000000 0.000000 0.000000
51.401976 0.005080 -47.850084 0.000000 0.000000 0.000000 135.969707 61.220685 0.000000 8.630969 18.603100 0.000000 0.000000 0.000000 0.000000 148.846263 76.400539 0.000000 5.885099 20.155620 0.000000 0.000000 0.000000 0.000000 0.000000 0.000000 0.000000 0.000000 0.000000 0.000000 0.000000 0.000000 0.000000 0.000000 0.000000 0.000000 0.000000 0.000000 0.000000
51.409161 0.004780 -47.849299 0.000000 0.000000 0.000000 135.310427 61.530783 0.000000 8.751169 18.640896 0.000000 0.000000 0.000000 0.000000 146.137554 76.566862 0.000000 5.704554 20.046951 0.000000 0.000000 0.000000 0.000000 0.000000 0.000000 0.000000 0.000000 0.000000 0.000000 0.000000 0.000000 0.000000 0.000000 0.000000 0.000000 0.000000 0.000000 0.000000
51.414406 0.004430 -47.849476 0.000000 0.000000 0.000000 135.264025 61.559156 0.000000 8.743081 18.576839 0.000000 0.000000 0.000000 0.000000 144.999773 76.604827 0.000000 5.603385 19.982832 0.000000 0.000000 0.000000 0.000000 0.000000 0.000000 0.000000 0.000000 0.000000 0.000000 0.000000 0.000000 0.000000 0.000000 0.000000 0.000000 0.000000 0.000000 0.000000
51.431288 0.004359 -47.852585 0.000000 0.000000 0.000000 135.103718 61.653327 0.000000 8.663490 18.467482 0.000000 0.000000 0.000000 0.000000 143.849973 76.870773 0.000000 5.534952 19.920312 0.000000 0.000000 0.000000 0.000000 0.000000 0.000000 0.000000 0.000000 0.000000 0.000000 0.000000 0.000000 0.000000 0.000000 0.000000 0.000000 0.000000 0.000000 0.000000
51.459523 0.004473 -47.854088 0.000000 0.000000 0.000000 134.419057 61.984690 0.000000 8.630573 18.435017 0.000000 0.000000 0.000000 0.000000 141.561445 77.323995 0.000000 5.476692 19.868490 0.000000 0.000000 0.000000 0.000000 0.000000 0.000000 0.000000 0.000000 0.000000 0.000000 0.000000 0.000000 0.000000 0.000000 0.000000 0.000000 0.000000 0.000000 0.000000
51.517911 0.004509 -47.855639 0.000000 0.000000 0.000000 134.261380 62.168122 0.000000 8.588645 18.439004 0.000000 0.000000 0.000000 0.000000 141.023295 77.441993 0.000000 5.434034 19.870945 0.000000 0.000000 0.000000 0.000000 0.000000 0.000000 0.000000 0.000000 0.000000 0.000000 0.000000 0.000000 0.000000 0.000000 0.000000 0.000000 0.000000 0.000000 0.000000
51.582856 0.004104 -47.856385 0.000000 0.000000 0.000000 134.470710 62.157876 0.000000 8.525287 18.414459 0.000000 0.000000 0.000000 0.000000 140.409721 77.371344 0.000000 5.384853 19.983909 0.000000 0.000000 0.000000 0.000000 0.000000 0.000000 0.000000 0.000000 0.000000 0.000000 0.000000 0.000000 0.000000 0.000000 0.000000 0.000000 0.000000 0.000000 0.000000
51.669878 0.003842 -47.861186 0.000000 0.000000 0.000000 134.403269 62.244323 0.000000 8.448728 18.419526 0.000000 0.000000 0.000000 0.000000 140.133748 77.430167 0.000000 5.327589 20.016626 0.000000 0.000000 0.000000 0.000000 0.000000 0.000000 0.000000 0.000000 0.000000 0.000000 0.000000 0.000000 0.000000 0.000000 0.000000 0.000000 0.000000 0.000000 0.000000
51.743646 0.003855 -47.859792 0.000000 0.000000 0.000000 134.320127 62.186560 0.000000 8.325518 18.398620 0.000000 0.000000 0.000000 0.000000 140.672546 77.485536 0.000000 5.321879 20.018018 0.000000 0.000000 0.000000 0.000000 0.000000 0.000000 0.000000 0.000000 0.000000 0.000000 0.000000 0.000000 0.000000 0.000000 0.000000 0.000000 0.000000 0.000000 0.000000
51.893443 0.003588 -47.859882 0.000000 0.000000 0.000000 134.543558 62.400682 0.000000 8.225368 18.406475 0.000000 0.000000 0.000000 0.000000 141.037479 77.754313 0.000000 5.292624 20.102152 0.000000 0.000000 0.000000 0.000000 0.000000 0.000000 0.000000 0.000000 0.000000 0.000000 0.000000 0.000000 0.000000 0.000000 0.000000 0.000000 0.000000 0.000000 0.000000
52.013031 0.004692 -47.854319 0.000000 0.000000 0.000000 134.654939 62.717550 0.000000 8.183930 18.396675 0.000000 0.000000 0.000000 0.000000 140.836276 78.128731 0.000000 5.220818 20.034563 0.000000 0.000000 0.000000 0.000000 0.000000 0.000000 0.000000 0.000000 0.000000 0.000000 0.000000 0.000000 0.000000 0.000000 0.000000 0.000000 0.000000 0.000000 0.000000
52.173935 0.004186 -47.850244 0.000000 0.000000 0.000000 135.346789 62.703068 0.000000 7.963398 18.282118 0.000000 0.000000 0.000000 0.000000 141.211754 78.483396 0.000000 5.162293 20.103400 0.000000 0.000000 0.000000 0.000000 0.000000 0.000000 0.000000 0.000000 0.000000 0.000000 0.000000 0.000000 0.000000 0.000000 0.000000 0.000000 0.000000 0.000000 0.000000
52.310659 0.004078 -47.839844 0.000000 0.000000 0.000000 136.438804 62.303260 0.000000 7.713569 18.093012 0.000000 0.000000 0.000000 0.000000 142.507397 78.611878 0.000000 5.053679 19.970845 0.000000 0.000000 0.000000 0.000000 0.000000 0.000000 0.000000 0.000000 0.000000 0.000000 0.000000 0.000000 0.000000 0.000000 0.000000 0.000000 0.000000 0.000000 0.000000
52.490464 0.004252 -47.832882 0.000000 0.000000 0.000000 137.100945 62.461259 0.000000 7.531843 17.902714 0.000000 0.000000 0.000000 0.000000 144.104201 78.619856 0.000000 4.876537 19.811733 0.000000 0.000000 0.000000 0.000000 0.000000 0.000000 0.000000 0.000000 0.000000 0.000000 0.000000 0.000000 0.000000 0.000000 0.000000 0.000000 0.000000 0.000000 0.000000
52.665393 0.004283 -47.820885 0.000000 0.000000 0.000000 137.171902 62.620023 0.000000 7.355868 17.731392 0.000000 0.000000 0.000000 0.000000 146.645036 78.709861 0.000000 4.715988 19.442343 0.000000 0.000000 0.000000 0.000000 0.000000 0.000000 0.000000 0.000000 0.000000 0.000000 0.000000 0.000000 0.000000 0.000000 0.000000 0.000000 0.000000 0.000000 0.000000
52.888620 0.004779 -47.812396 0.000000 0.000000 0.000000 137.827294 62.914603 0.000000 7.139240 17.342109 0.000000 0.000000 0.000000 0.000000 151.410467 78.310817 0.000000 4.520173 18.887143 0.000000 0.000000 0.000000 0.000000 0.000000 0.000000 0.000000 0.000000 0.000000 0.000000 0.000000 0.000000 0.000000 0.000000 0.000000 0.000000 0.000000 0.000000 0.000000
53.130071 0.005252 -47.793351 0.000000 0.000000 0.000000 138.994331 63.236492 0.000000 7.054381 17.207074 0.000000 0.000000 0.000000 0.000000 154.612125 78.381315 0.000000 4.531801 19.008137 0.000000 0.000000 0.000000 0.000000 0.000000 0.000000 0.000000 0.000000 0.000000 0.000000 0.000000 0.000000 0.000000 0.000000 0.000000 0.000000 0.000000 0.000000 0.000000
53.489442 0.006089 -47.717439 0.000000 0.000000 0.000000 141.537062 63.463601 0.000000 6.963925 17.119714 0.000000 0.000000 0.000000 0.000000 159.884827 77.812073 0.000000 4.423715 19.085901 0.000000 0.000000 0.000000 0.000000 0.000000 0.000000 0.000000 0.000000 0.000000 0.000000 0.000000 0.000000 0.000000 0.000000 0.000000 0.000000 0.000000 0.000000 0.000000
53.669876 0.006708 -47.623424 0.000000 0.000000 0.000000 142.688880 63.682219 0.000000 7.068032 17.299432 0.000000 0.000000 0.000000 0.000000 161.631681 76.267848 0.000000 4.319770 19.619537 0.000000 0.000000 0.000000 0.000000 0.000000 0.000000 0.000000 0.000000 0.000000 0.000000 0.000000 0.000000 0.000000 0.000000 0.000000 0.000000 0.000000 0.000000 0.000000
53.986056 0.006860 -47.519608 0.000000 0.000000 0.000000 145.276047 63.882943 0.000000 7.112026 17.525754 0.000000 0.000000 0.000000 0.000000 163.789101 75.551009 0.000000 4.132431 19.834658 0.000000 0.000000 0.000000 0.000000 0.000000 0.000000 0.000000 0.000000 0.000000 0.000000 0.000000 0.000000 0.000000 0.000000 0.000000 0.000000 0.000000 0.000000 0.000000
54.260495 0.007544 -47.391984 0.000000 0.000000 0.000000 147.200813 64.304347 0.000000 7.130564 17.547377 0.000000 0.000000 0.000000 0.000000 164.740905 75.214960 0.000000 3.845915 19.733538 0.000000 0.000000 0.000000 0.000000 0.000000 0.000000 0.000000 0.000000 0.000000 0.000000 0.000000 0.000000 0.000000 0.000000 0.000000 0.000000 0.000000 0.000000 0.000000
54.545112 0.008690 -47.338498 0.000000 0.000000 0.000000 149.072119 64.611694 0.000000 7.482945 18.394865 0.000000 0.000000 0.000000 0.000000 164.797098 74.310202 0.000000 3.759920 21.359938 0.000000 0.000000 0.000000 0.000000 0.000000 0.000000 0.000000 0.000000 0.000000 0.000000 0.000000 0.000000 0.000000 0.000000 0.000000 0.000000 0.000000 0.000000 0.000000
54.761714 0.008564 -47.349411 0.000000 0.000000 0.000000 148.275018 65.780203 0.000000 7.443168 18.436752 0.000000 0.000000 0.000000 0.000000 164.326671 74.722181 0.000000 3.452452 20.986003 0.000000 0.000000 0.000000 0.000000 0.000000 0.000000 0.000000 0.000000 0.000000 0.000000 0.000000 0.000000 0.000000 0.000000 0.000000 0.000000 0.000000 0.000000 0.000000
55.028746 0.009227 -47.334430 0.000000 0.000000 0.000000 144.224664 68.429178 0.000000 7.661806 19.357912 0.000000 0.000000 0.000000 0.000000 163.191101 74.924522 0.000000 2.998758 21.029141 0.000000 0.000000 0.000000 0.000000 0.000000 0.000000 0.000000 0.000000 0.000000 0.000000 0.000000 0.000000 0.000000 0.000000 0.000000 0.000000 0.000000 0.000000 0.000000
55.563241 0.009714 -47.373891 0.000000 0.000000 0.000000 137.290491 72.620337 0.000000 7.561331 20.014987 0.000000 0.000000 0.000000 0.000000 163.439396 77.624070 0.000000 2.749258 21.192837 0.000000 0.000000 0.000000 0.000000 0.000000 0.000000 0.000000 0.000000 0.000000 0.000000 0.000000 0.000000 0.000000 0.000000 0.000000 0.000000 0.000000 0.000000 0.000000
56.373043 0.009893 -47.352120 0.000000 0.000000 0.000000 140.973788 74.861520 0.000000 7.356486 20.158187 0.000000 0.000000 0.000000 0.000000 169.063572 78.273456 0.000000 2.191672 21.276243 0.000000 0.000000 0.000000 0.000000 0.000000 0.000000 0.000000 0.000000 0.000000 0.000000 0.000000 0.000000 0.000000 0.000000 0.000000 0.000000 0.000000 0.000000 0.000000
57.060248 0.010044 -47.324565 0.000000 0.000000 0.000000 128.271954 78.793597 0.000000 6.290606 18.446009 0.000000 0.000000 0.000000 0.000000 168.306824 82.534484 0.000000 1.417194 21.190221 0.000000 0.000000 0.000000 0.000000 0.000000 0.000000 0.000000 0.000000 0.000000 0.000000 0.000000 0.000000 0.000000 0.000000 0.000000 0.000000 0.000000 0.000000 0.000000
57.766432 0.009577 -47.236116 0.000000 0.000000 0.000000 138.565576 78.366314 0.000000 5.701194 17.637927 0.000000 0.000000 0.000000 0.000000 175.656070 80.745063 0.000000 0.740004 20.072450 0.000000 0.000000 0.000000 0.000000 0.000000 0.000000 0.000000 0.000000 0.000000 0.000000 0.000000 0.000000 0.000000 0.000000 0.000000 0.000000 0.000000 0.000000 0.000000
58.463880 0.011049 -47.067079 0.000000 0.000000 0.000000 141.821037 78.716215 0.000000 5.444629 18.070346 0.000000 0.000000 0.000000 0.000000 -173.780918 79.124931 0.000000 0.350453 20.389368 0.000000 0.000000 0.000000 0.000000 0.000000 0.000000 0.000000 0.000000 0.000000 0.000000 0.000000 0.000000 0.000000 0.000000 0.000000 0.000000 0.000000 0.000000 0.000000
59.164041 0.009083 -47.005844 0.000000 0.000000 0.000000 148.067776 78.428424 0.000000 5.155575 18.781117 0.000000 0.000000 0.000000 0.000000 -170.383960 79.767179 0.000000 -0.408384 21.526194 0.000000 0.000000 0.000000 0.000000 0.000000 0.000000 0.000000 0.000000 0.000000 0.000000 0.000000 0.000000 0.000000 0.000000 0.000000 0.000000 0.000000 0.000000 0.000000
59.880581 0.008871 -46.982090 0.000000 0.000000 0.000000 140.867298 81.015402 0.000000 4.350381 18.443485 0.000000 0.000000 0.000000 0.000000 -163.440541 81.470186 0.000000 -1.165118 21.424476 0.000000 0.000000 0.000000 0.000000 0.000000 0.000000 0.000000 0.000000 0.000000 0.000000 0.000000 0.000000 0.000000 0.000000 0.000000 0.000000 0.000000 0.000000 0.000000
60.470679 0.008934 -46.898650 0.000000 0.000000 0.000000 136.923392 80.836944 0.000000 3.681279 18.909349 0.000000 0.000000 0.000000 0.000000 -151.332577 82.776265 0.000000 -1.785767 21.727677 0.000000 0.000000 0.000000 0.000000 0.000000 0.000000 0.000000 0.000000 0.000000 0.000000 0.000000 0.000000 0.000000 0.000000 0.000000 0.000000 0.000000 0.000000 0.000000
61.049381 0.008379 -46.856622 0.000000 0.000000 0.000000 140.025272 80.828588 0.000000 3.135296 19.465173 0.000000 0.000000 0.000000 0.000000 -142.124550 83.513716 0.000000 -2.384271 22.892226 0.000000 0.000000 0.000000 0.000000 0.000000 0.000000 0.000000 0.000000 0.000000 0.000000 0.000000 0.000000 0.000000 0.000000 0.000000 0.000000 0.000000 0.000000 0.000000
61.599568 0.008173 -46.828039 0.000000 0.000000 0.000000 136.128991 82.176940 0.000000 2.717777 20.020931 0.000000 0.000000 0.000000 0.000000 -122.439929 84.287105 0.000000 -2.890193 23.828822 0.000000 0.000000 0.000000 0.000000 0.000000 0.000000 0.000000 0.000000 0.000000 0.000000 0.000000 0.000000 0.000000 0.000000 0.000000 0.000000 0.000000 0.000000 0.000000
62.198350 0.007580 -46.820109 0.000000 0.000000 0.000000 141.882490 82.305236 0.000000 2.431966 20.550024 0.000000 0.000000 0.000000 0.000000 -112.916524 82.720095 0.000000 -3.243994 24.876645 0.000000 0.000000 0.000000 0.000000 0.000000 0.000000 0.000000 0.000000 0.000000 0.000000 0.000000 0.000000 0.000000 0.000000 0.000000 0.000000 0.000000 0.000000 0.000000
62.772694 0.007613 -46.826081 0.000000 0.000000 0.000000 153.497846 82.540078 0.000000 2.357603 21.493291 0.000000 0.000000 0.000000 0.000000 -109.286219 80.562227 0.000000 -3.281471 25.370000 0.000000 0.000000 0.000000 0.000000 0.000000 0.000000 0.000000 0.000000 0.000000 0.000000 0.000000 0.000000 0.000000 0.000000 0.000000 0.000000 0.000000 0.000000 0.000000
63.311568 0.007372 -46.841608 0.000000 0.000000 0.000000 160.210993 82.753677 0.000000 2.362075 23.119669 0.000000 0.000000 0.000000 0.000000 -106.687168 78.523725 0.000000 -3.432177 27.720727 0.000000 0.000000 0.000000 0.000000 0.000000 0.000000 0.000000 0.000000 0.000000 0.000000 0.000000 0.000000 0.000000 0.000000 0.000000 0.000000 0.000000 0.000000 0.000000
63.850120 0.006376 -46.819830 0.000000 0.000000 0.000000 169.065644 77.799319 0.000000 1.742699 24.354468 0.000000 0.000000 0.000000 0.000000 -106.372236 76.452624 0.000000 -3.472846 28.573961 0.000000 0.000000 0.000000 0.000000 0.000000 0.000000 0.000000 0.000000 0.000000 0.000000 0.000000 0.000000 0.000000 0.000000 0.000000 0.000000 0.000000 0.000000 0.000000
64.226776 0.005246 -46.812738 0.000000 0.000000 0.000000 173.689302 71.952144 0.000000 1.158815 23.177170 0.000000 0.000000 0.000000 0.000000 -110.683516 74.547755 0.000000 -3.229807 28.418779 0.000000 0.000000 0.000000 0.000000 0.000000 0.000000 0.000000 0.000000 0.000000 0.000000 0.000000 0.000000 0.000000 0.000000 0.000000 0.000000 0.000000 0.000000 0.000000
64.731824 0.002802 -46.869110 0.000000 0.000000 0.000000 177.247792 68.902918 0.000000 0.695367 21.751434 0.000000 0.000000 0.000000 0.000000 -113.157979 72.517812 0.000000 -3.006943 27.670981 0.000000 0.000000 0.000000 0.000000 0.000000 0.000000 0.000000 0.000000 0.000000 0.000000 0.000000 0.000000 0.000000 0.000000 0.000000 0.000000 0.000000 0.000000 0.000000
65.063384 0.000949 -46.890157 0.000000 0.000000 0.000000 177.591649 68.229279 0.000000 0.370423 20.658426 0.000000 0.000000 0.000000 0.000000 -111.958520 71.327462 0.000000 -2.872465 26.008111 0.000000 0.000000 0.000000 0.000000 0.000000 0.000000 0.000000 0.000000 0.000000 0.000000 0.000000 0.000000 0.000000 0.000000 0.000000 0.000000 0.000000 0.000000 0.000000
65.454990 0.000843 -46.914037 0.000000 0.000000 0.000000 179.402793 68.568742 0.000000 0.021157 18.522152 0.000000 0.000000 0.000000 0.000000 -110.002540 70.474612 0.000000 -2.723755 24.103348 0.000000 0.000000 0.000000 0.000000 0.000000 0.000000 0.000000 0.000000 0.000000 0.000000 0.000000 0.000000 0.000000 0.000000 0.000000 0.000000 0.000000 0.000000 0.000000
65.910578 -0.000036 -46.939842 0.000000 0.000000 0.000000 -175.756434 71.008467 0.000000 -0.004829 18.674650 0.000000 0.000000 0.000000 0.000000 -97.612115 70.877386 0.000000 -3.230426 23.705151 0.000000 0.000000 0.000000 0.000000 0.000000 0.000000 0.000000 0.000000 0.000000 0.000000 0.000000 0.000000 0.000000 0.000000 0.000000 0.000000 0.000000 0.000000 0.000000
66.161293 0.000510 -46.990560 0.000000 0.000000 0.000000 -170.802287 78.155127 0.000000 -0.204217 19.617083 0.000000 0.000000 0.000000 0.000000 -88.316287 71.386791 0.000000 -3.691234 23.644841 0.000000 0.000000 0.000000 0.000000 0.000000 0.000000 0.000000 0.000000 0.000000 0.000000 0.000000 0.000000 0.000000 0.000000 0.000000 0.000000 0.000000 0.000000 0.000000
66.369817 0.001044 -47.009964 0.000000 0.000000 0.000000 -166.675645 79.847668 0.000000 -0.413835 18.864591 0.000000 0.000000 0.000000 0.000000 -86.256682 71.467718 0.000000 -3.962178 23.331811 0.000000 0.000000 0.000000 0.000000 0.000000 0.000000 0.000000 0.000000 0.000000 0.000000 0.000000 0.000000 0.000000 0.000000 0.000000 0.000000 0.000000 0.000000 0.000000
66.500926 0.001666 -47.053322 0.000000 0.000000 0.000000 -160.253651 82.747688 0.000000 -0.580461 19.257348 0.000000 0.000000 0.000000 0.000000 -86.088778 71.569180 0.000000 -4.309331 23.715006 0.000000 0.000000 0.000000 0.000000 0.000000 0.000000 0.000000 0.000000 0.000000 0.000000 0.000000 0.000000 0.000000 0.000000 0.000000 0.000000 0.000000 0.000000 0.000000
66.574082 0.001813 -47.080126 0.000000 0.000000 0.000000 -163.979228 82.748968 0.000000 -0.791745 18.618569 0.000000 0.000000 0.000000 0.000000 -84.446112 71.493786 0.000000 -4.297901 23.036173 0.000000 0.000000 0.000000 0.000000 0.000000 0.000000 0.000000 0.000000 0.000000 0.000000 0.000000 0.000000 0.000000 0.000000 0.000000 0.000000 0.000000 0.000000 0.000000
66.543344 0.001277 -47.075190 0.000000 0.000000 0.000000 -167.438473 82.699514 0.000000 -0.884382 18.803295 0.000000 0.000000 0.000000 0.000000 -86.033326 71.732380 0.000000 -4.397821 23.176269 0.000000 0.000000 0.000000 0.000000 0.000000 0.000000 0.000000 0.000000 0.000000 0.000000 0.000000 0.000000 0.000000 0.000000 0.000000 0.000000 0.000000 0.000000 0.000000
66.520071 0.001345 -47.072642 0.000000 0.000000 0.000000 -168.606906 81.680156 0.000000 -0.855436 18.692399 0.000000 0.000000 0.000000 0.000000 -87.084048 71.785114 0.000000 -4.373067 23.101988 0.000000 0.000000 0.000000 0.000000 0.000000 0.000000 0.000000 0.000000 0.000000 0.000000 0.000000 0.000000 0.000000 0.000000 0.000000 0.000000 0.000000 0.000000 0.000000
66.469422 0.001456 -47.066788 0.000000 0.000000 0.000000 -170.832282 80.511002 0.000000 -0.834499 18.740155 0.000000 0.000000 0.000000 0.000000 -95.575408 71.898248 0.000000 -4.502519 23.932604 0.000000 0.000000 0.000000 0.000000 0.000000 0.000000 0.000000 0.000000 0.000000 0.000000 0.000000 0.000000 0.000000 0.000000 0.000000 0.000000 0.000000 0.000000 0.000000
66.421658 0.001815 -47.080606 0.000000 0.000000 0.000000 -173.667164 77.175160 0.000000 -0.770431 18.192844 0.000000 0.000000 0.000000 0.000000 -103.319181 71.652097 0.000000 -4.224924 23.186701 0.000000 0.000000 0.000000 0.000000 0.000000 0.000000 0.000000 0.000000 0.000000 0.000000 0.000000 0.000000 0.000000 0.000000 0.000000 0.000000 0.000000 0.000000 0.000000
66.385308 0.003114 -47.068314 0.000000 0.000000 0.000000 -174.391942 76.358155 0.000000 -0.753155 18.198464 0.000000 0.000000 0.000000 0.000000 -104.128476 71.610337 0.000000 -4.151940 23.156967 0.000000 0.000000 0.000000 0.000000 0.000000 0.000000 0.000000 0.000000 0.000000 0.000000 0.000000 0.000000 0.000000 0.000000 0.000000 0.000000 0.000000 0.000000 0.000000
66.357589 0.003100 -47.080298 0.000000 0.000000 0.000000 -174.541090 76.286685 0.000000 -0.725899 18.172899 0.000000 0.000000 0.000000 0.000000 -103.135397 71.249215 0.000000 -3.836492 23.162970 0.000000 0.000000 0.000000 0.000000 0.000000 0.000000 0.000000 0.000000 0.000000 0.000000 0.000000 0.000000 0.000000 0.000000 0.000000 0.000000 0.000000 0.000000 0.000000
66.343364 0.003157 -47.088388 0.000000 0.000000 0.000000 -174.447093 76.461808 0.000000 -0.710990 18.116735 0.000000 0.000000 0.000000 0.000000 -102.648647 70.964282 0.000000 -3.624173 23.093505 0.000000 0.000000 0.000000 0.000000 0.000000 0.000000 0.000000 0.000000 0.000000 0.000000 0.000000 0.000000 0.000000 0.000000 0.000000 0.000000 0.000000 0.000000 0.000000
66.297573 0.003376 -47.101416 0.000000 0.000000 0.000000 -174.926894 75.790425 0.000000 -0.656989 17.851303 0.000000 0.000000 0.000000 0.000000 -102.083853 70.730368 0.000000 -3.372550 23.008258 0.000000 0.000000 0.000000 0.000000 0.000000 0.000000 0.000000 0.000000 0.000000 0.000000 0.000000 0.000000 0.000000 0.000000 0.000000 0.000000 0.000000 0.000000 0.000000
66.215748 0.003404 -47.116159 0.000000 0.000000 0.000000 -175.620488 75.484093 0.000000 -0.569623 17.773893 0.000000 0.000000 0.000000 0.000000 -103.085940 70.591667 0.000000 -3.189238 22.961999 0.000000 0.000000 0.000000 0.000000 0.000000 0.000000 0.000000 0.000000 0.000000 0.000000 0.000000 0.000000 0.000000 0.000000 0.000000 0.000000 0.000000 0.000000 0.000000
66.099811 0.003377 -47.118123 0.000000 0.000000 0.000000 -175.927199 75.311348 0.000000 -0.404234 17.721299 0.000000 0.000000 0.000000 0.000000 -103.269477 70.694484 0.000000 -3.051353 22.966841 0.000000 0.000000 0.000000 0.000000 0.000000 0.000000 0.000000 0.000000 0.000000 0.000000 0.000000 0.000000 0.000000 0.000000 0.000000 0.000000 0.000000 0.000000 0.000000
65.908220 0.003333 -47.118291 0.000000 0.000000 0.000000 -177.642537 74.774809 0.000000 -0.242816 17.631332 0.000000 0.000000 0.000000 0.000000 -103.753917 71.192117 0.000000 -2.921395 22.368701 0.000000 0.000000 0.000000 0.000000 0.000000 0.000000 0.000000 0.000000 0.000000 0.000000 0.000000 0.000000 0.000000 0.000000 0.000000 0.000000 0.000000 0.000000 0.000000
65.658033 0.003220 -47.116750 0.000000 0.000000 0.000000 -179.724647 74.931650 0.000000 -0.078575 17.668592 0.000000 0.000000 0.000000 0.000000 -102.576740 72.109427 0.000000 -2.850577 22.107193 0.000000 0.000000 0.000000 0.000000 0.000000 0.000000 0.000000 0.000000 0.000000 0.000000 0.000000 0.000000 0.000000 0.000000 0.000000 0.000000 0.000000 0.000000 0.000000
65.387917 0.003181 -47.111888 0.000000 0.000000 0.000000 177.098249 75.353314 0.000000 0.004519 17.695535 0.000000 0.000000 0.000000 0.000000 -98.353913 73.316151 0.000000 -2.746694 21.662919 0.000000 0.000000 0.000000 0.000000 0.000000 0.000000 0.000000 0.000000 0.000000 0.000000 0.000000 0.000000 0.000000 0.000000 0.000000 0.000000 0.000000 0.000000 0.000000
65.057167 0.003155 -47.104599 0.000000 0.000000 0.000000 174.037141 74.826490 0.000000 0.153591 17.786490 0.000000 0.000000 0.000000 0.000000 -99.204804 74.458564 0.000000 -2.710974 21.636304 0.000000 0.000000 0.000000 0.000000 0.000000 0.000000 0.000000 0.000000 0.000000 0.000000 0.000000 0.000000 0.000000 0.000000 0.000000 0.000000 0.000000 0.000000 0.000000
64.661509 0.003229 -47.080287 0.000000 0.000000 0.000000 170.776840 74.393722 0.000000 0.353427 18.031271 0.000000 0.000000 0.000000 0.000000 -103.237581 75.663948 0.000000 -2.712551 21.657811 0.000000 0.000000 0.000000 0.000000 0.000000 0.000000 0.000000 0.000000 0.000000 0.000000 0.000000 0.000000 0.000000 0.000000 0.000000 0.000000 0.000000 0.000000 0.000000
64.237237 0.003667 -47.070368 0.000000 0.000000 0.000000 168.044007 74.659173 0.000000 0.686150 18.224713 0.000000 0.000000 0.000000 0.000000 -103.878288 77.123884 0.000000 -2.726073 21.760720 0.000000 0.000000 0.000000 0.000000 0.000000 0.000000 0.000000 0.000000 0.000000 0.000000 0.000000 0.000000 0.000000 0.000000 0.000000 0.000000 0.000000 0.000000 0.000000
63.748297 0.004099 -47.055854 0.000000 0.000000 0.000000 162.334108 75.205194 0.000000 0.873301 18.468948 0.000000 0.000000 0.000000 0.000000 -104.471913 78.782588 0.000000 -2.704116 21.835311 0.000000 0.000000 0.000000 0.000000 0.000000 0.000000 0.000000 0.000000 0.000000 0.000000 0.000000 0.000000 0.000000 0.000000 0.000000 0.000000 0.000000 0.000000 0.000000
63.199371 0.004458 -47.025676 0.000000 0.000000 0.000000 156.845681 76.277691 0.000000 1.362706 19.365570 0.000000 0.000000 0.000000 0.000000 -107.654720 80.435276 0.000000 -2.684850 22.339423 0.000000 0.000000 0.000000 0.000000 0.000000 0.000000 0.000000 0.000000 0.000000 0.000000 0.000000 0.000000 0.000000 0.000000 0.000000 0.000000 0.000000 0.000000 0.000000
62.637922 0.004934 -46.960872 0.000000 0.000000 0.000000 152.796941 76.848876 0.000000 1.957231 19.826585 0.000000 0.000000 0.000000 0.000000 -111.301088 82.048679 0.000000 -2.594946 22.920625 0.000000 0.000000 0.000000 0.000000 0.000000 0.000000 0.000000 0.000000 0.000000 0.000000 0.000000 0.000000 0.000000 0.000000 0.000000 0.000000 0.000000 0.000000 0.000000
62.081373 0.005333 -46.907163 0.000000 0.000000 0.000000 139.425953 79.546651 0.000000 2.463823 20.366938 0.000000 0.000000 0.000000 0.000000 -100.349424 84.142778 0.000000 -2.401114 23.270208 0.000000 0.000000 0.000000 0.000000 0.000000 0.000000 0.000000 0.000000 0.000000 0.000000 0.000000 0.000000 0.000000 0.000000 0.000000 0.000000 0.000000 0.000000 0.000000
61.620057 0.005547 -46.846066 0.000000 0.000000 0.000000 130.256880 80.574692 0.000000 3.079620 20.838000 0.000000 0.000000 0.000000 0.000000 -90.549438 84.935426 0.000000 -2.075120 23.815492 0.000000 0.000000 0.000000 0.000000 0.000000 0.000000 0.000000 0.000000 0.000000 0.000000 0.000000 0.000000 0.000000 0.000000 0.000000 0.000000 0.000000 0.000000 0.000000
61.187953 0.005669 -46.804032 0.000000 0.000000 0.000000 135.001285 80.485591 0.000000 3.925776 21.156992 0.000000 0.000000 0.000000 0.000000 -92.324668 85.325485 0.000000 -1.619418 24.688502 0.000000 0.000000 0.000000 0.000000 0.000000 0.000000 0.000000 0.000000 0.000000 0.000000 0.000000 0.000000 0.000000 0.000000 0.000000 0.000000 0.000000 0.000000 0.000000
60.674009 0.006020 -46.724097 0.000000 0.000000 0.000000 134.084737 80.289668 0.000000 4.683396 21.920213 0.000000 0.000000 0.000000 0.000000 -96.224326 85.939120 0.000000 -1.129281 25.640126 0.000000 0.000000 0.000000 0.000000 0.000000 0.000000 0.000000 0.000000 0.000000 0.000000 0.000000 0.000000 0.000000 0.000000 0.000000 0.000000 0.000000 0.000000 0.000000
60.140339 0.006719 -46.699175 0.000000 0.000000 0.000000 118.093668 81.971902 0.000000 5.435598 22.136292 0.000000 0.000000 0.000000 0.000000 -69.894850 86.306522 0.000000 -0.463516 26.071227 0.000000 0.000000 0.000000 0.000000 0.000000 0.000000 0.000000 0.000000 0.000000 0.000000 0.000000 0.000000 0.000000 0.000000 0.000000 0.000000 0.000000 0.000000 0.000000
59.564593 0.007093 -46.665259 0.000000 0.000000 0.000000 106.717394 81.727736 0.000000 6.069186 22.443818 0.000000 0.000000 0.000000 0.000000 -37.993035 85.791437 0.000000 0.079345 26.483824 0.000000 0.000000 0.000000 0.000000 0.000000 0.000000 0.000000 0.000000 0.000000 0.000000 0.000000 0.000000 0.000000 0.000000 0.000000 0.000000 0.000000 0.000000 0.000000
58.975103 0.007483 -46.657917 0.000000 0.000000 0.000000 99.438489 81.422451 0.000000 6.891431 22.910147 0.000000 0.000000 0.000000 0.000000 -22.445206 86.374471 0.000000 0.383215 27.367929 0.000000 0.000000 0.000000 0.000000 0.000000 0.000000 0.000000 0.000000 0.000000 0.000000 0.000000 0.000000 0.000000 0.000000 0.000000 0.000000 0.000000 0.000000 0.000000
58.368096 0.008523 -46.626677 0.000000 0.000000 0.000000 98.201445 81.010960 0.000000 7.672493 23.030886 0.000000 0.000000 0.000000 0.000000 -7.316648 86.982780 0.000000 0.954320 27.402565 0.000000 0.000000 0.000000 0.000000 0.000000 0.000000 0.000000 0.000000 0.000000 0.000000 0.000000 0.000000 0.000000 0.000000 0.000000 0.000000 0.000000 0.000000 0.000000
57.771209 0.008895 -46.606976 0.000000 0.000000 0.000000 109.677156 79.435397 0.000000 7.784948 22.736221 0.000000 0.000000 0.000000 0.000000 27.090145 89.014856 0.000000 1.595585 26.812093 0.000000 0.000000 0.000000 0.000000 0.000000 0.000000 0.000000 0.000000 0.000000 0.000000 0.000000 0.000000 0.000000 0.000000 0.000000 0.000000 0.000000 0.000000 0.000000
57.279778 0.009145 -46.594664 0.000000 0.000000 0.000000 128.961107 76.495408 0.000000 7.714624 21.796399 0.000000 0.000000 0.000000 0.000000 147.404498 88.199875 0.000000 2.106186 25.683167 0.000000 0.000000 0.000000 0.000000 0.000000 0.000000 0.000000 0.000000 0.000000 0.000000 0.000000 0.000000 0.000000 0.000000 0.000000 0.000000 0.000000 0.000000 0.000000
56.681949 0.009331 -46.611236 0.000000 0.000000 0.000000 132.707973 74.846653 0.000000 8.023646 21.409185 0.000000 0.000000 0.000000 0.000000 148.006774 85.976977 0.000000 2.498691 25.082990 0.000000 0.000000 0.000000 0.000000 0.000000 0.000000 0.000000 0.000000 0.000000 0.000000 0.000000 0.000000 0.000000 0.000000 0.000000 0.000000 0.000000 0.000000 0.000000
56.121160 0.009691 -46.628737 0.000000 0.000000 0.000000 128.501791 74.234739 0.000000 7.522131 19.991654 0.000000 0.000000 0.000000 0.000000 138.434656 85.753202 0.000000 2.836469 22.916008 0.000000 0.000000 0.000000 0.000000 0.000000 0.000000 0.000000 0.000000 0.000000 0.000000 0.000000 0.000000 0.000000 0.000000 0.000000 0.000000 0.000000 0.000000 0.000000
55.580354 0.010009 -46.654595 0.000000 0.000000 0.000000 127.778399 73.481449 0.000000 7.641654 19.581130 0.000000 0.000000 0.000000 0.000000 127.516968 85.262256 0.000000 3.124632 22.168582 0.000000 0.000000 0.000000 0.000000 0.000000 0.000000 0.000000 0.000000 0.000000 0.000000 0.000000 0.000000 0.000000 0.000000 0.000000 0.000000 0.000000 0.000000 0.000000
55.035761 0.010074 -46.677707 0.000000 0.000000 0.000000 126.727779 73.170127 0.000000 7.902250 19.365492 0.000000 0.000000 0.000000 0.000000 117.813979 84.517392 0.000000 3.456536 21.801235 0.000000 0.000000 0.000000 0.000000 0.000000 0.000000 0.000000 0.000000 0.000000 0.000000 0.000000 0.000000 0.000000 0.000000 0.000000 0.000000 0.000000 0.000000 0.000000
54.493564 0.010425 -46.749000 0.000000 0.000000 0.000000 125.330880 72.822145 0.000000 7.863506 18.948221 0.000000 0.000000 0.000000 0.000000 112.387330 83.718986 0.000000 3.757465 21.088047 0.000000 0.000000 0.000000 0.000000 0.000000 0.000000 0.000000 0.000000 0.000000 0.000000 0.000000 0.000000 0.000000 0.000000 0.000000 0.000000 0.000000 0.000000 0.000000
53.992030 0.011103 -46.817082 0.000000 0.000000 0.000000 123.774703 72.086778 0.000000 7.808680 18.446209 0.000000 0.000000 0.000000 0.000000 111.901131 83.015172 0.000000 3.882253 19.669814 0.000000 0.000000 0.000000 0.000000 0.000000 0.000000 0.000000 0.000000 0.000000 0.000000 0.000000 0.000000 0.000000 0.000000 0.000000 0.000000 0.000000 0.000000 0.000000
53.454576 0.011178 -46.864782 0.000000 0.000000 0.000000 121.850311 71.378058 0.000000 7.983142 18.376152 0.000000 0.000000 0.000000 0.000000 109.051823 82.287800 0.000000 4.330615 19.758858 0.000000 0.000000 0.000000 0.000000 0.000000 0.000000 0.000000 0.000000 0.000000 0.000000 0.000000 0.000000 0.000000 0.000000 0.000000 0.000000 0.000000 0.000000 0.000000
53.102939 0.011761 -46.926567 0.000000 0.000000 0.000000 116.818631 71.129997 0.000000 8.026216 18.423852 0.000000 0.000000 0.000000 0.000000 104.926090 81.936344 0.000000 4.518344 19.476531 0.000000 0.000000 0.000000 0.000000 0.000000 0.000000 0.000000 0.000000 0.000000 0.000000 0.000000 0.000000 0.000000 0.000000 0.000000 0.000000 0.000000 0.000000 0.000000
52.768733 0.011765 -47.000577 0.000000 0.000000 0.000000 115.941266 70.650761 0.000000 8.125484 18.494443 0.000000 0.000000 0.000000 0.000000 103.894947 81.395839 0.000000 4.804490 19.762588 0.000000 0.000000 0.000000 0.000000 0.000000 0.000000 0.000000 0.000000 0.000000 0.000000 0.000000 0.000000 0.000000 0.000000 0.000000 0.000000 0.000000 0.000000 0.000000
52.463903 0.011777 -47.062993 0.000000 0.000000 0.000000 118.300506 69.297417 0.000000 8.054872 18.316809 0.000000 0.000000 0.000000 0.000000 108.780613 80.944773 0.000000 4.994937 19.379847 0.000000 0.000000 0.000000 0.000000 0.000000 0.000000 0.000000 0.000000 0.000000 0.000000 0.000000 0.000000 0.000000 0.000000 0.000000 0.000000 0.000000 0.000000 0.000000
