
HIERARCHY
ROOT Hips
{
    OFFSET 0 0 0
    CHANNELS 6 Xposition Yposition Zposition Zrotation Xrotation Yrotation

    JOINT LeftUpLeg
    {
        OFFSET -5 -10 0
        CHANNELS 3 Zrotation Xrotation Yrotation

        JOINT LeftLeg
        {
            OFFSET 0 -20 0
            CHANNELS 3 Zrotation Xrotation Yrotation

            End Site
            {
                OFFSET 0 -20 0
            }
        }
    }

    JOINT RightUpLeg
    {
        OFFSET 5 -10 0
        CHANNELS 3 Zrotation Xrotation Yrotation

        JOINT RightLeg
        {
            OFFSET 0 -20 0
            CHANNELS 3 Zrotation Xrotation Yrotation

            End Site
            {
                OFFSET 0 -20 0
            }
        }
    }
}

MOTION
Frames: 246
Frame Time: 0.033198
59.150168 46.820405 0.008783 0.000000 0.000000 0.000000 -8.810140 4.301651 0.331532 -10.917751 69.161670 7.538227 4.718603 8.455437 -0.349004 3.373888 68.006052 -2.276334
59.337622 46.834633 0.008798 0.000000 0.000000 0.000000 -8.442082 4.499458 0.332251 -11.374002 70.290086 8.020425 5.367436 9.445965 -0.443774 3.485358 68.913184 -2.391925
59.650743 46.824354 0.008817 0.000000 0.000000 0.000000 -8.125008 4.533898 0.322179 -11.233897 70.169124 7.903614 6.664927 9.720730 -0.567377 3.413292 68.766777 -2.336044
60.019431 46.801187 0.009302 0.000000 0.000000 0.000000 -7.628325 4.076050 0.271857 -10.889186 69.710157 7.595483 8.372899 9.287828 -0.681332 2.612373 68.797104 -1.788797
60.492676 46.807624 0.009246 0.000000 0.000000 0.000000 -7.042441 1.272068 0.078279 -10.217803 69.812503 7.139399 10.365862 8.189333 -0.744085 0.613172 68.800333 -0.419853
60.884601 46.827471 0.009189 0.000000 0.000000 0.000000 -6.691390 -2.487952 -0.145468 -9.936776 69.770753 6.937152 11.920390 4.371758 -0.456639 -1.154867 68.936189 0.792786
61.267325 46.910062 0.009008 0.000000 0.000000 0.000000 -6.141926 -1.675378 -0.089890 -10.042534 69.837040 7.019805 13.178216 4.472843 -0.516923 -2.196498 69.033233 1.510647
61.567011 47.032286 0.009163 0.000000 0.000000 0.000000 -5.331228 3.790038 0.176518 -9.888706 70.604488 7.010848 12.180027 7.488813 -0.800130 -1.086987 69.250093 0.750575
61.750236 47.076134 0.009720 0.000000 0.000000 0.000000 -5.020210 3.279023 0.143784 -9.594675 71.154368 6.871172 10.523915 8.470828 -0.781555 0.990128 69.547328 -0.687491
61.947915 47.100405 0.010061 0.000000 0.000000 0.000000 -4.990364 3.633945 0.158408 -8.913483 71.639853 6.439540 9.958569 10.085319 -0.880935 2.504115 69.549216 -1.738903
62.149647 47.107995 0.009810 0.000000 0.000000 0.000000 -4.606849 3.569989 0.143646 -8.459277 71.421951 6.086405 10.197763 10.012851 -0.895689 3.059188 69.399578 -2.118527
62.303919 47.092737 0.009574 0.000000 0.000000 0.000000 -4.197156 2.211866 0.081061 -8.264163 71.355758 5.938553 10.358929 9.056864 -0.822666 3.566919 69.387805 -2.469705
62.513310 47.097448 0.009063 0.000000 0.000000 0.000000 -3.494349 1.786039 0.054485 -8.034801 71.418698 5.780155 10.716371 9.161491 -0.861090 4.080377 69.307451 -2.821137
62.651369 47.078261 0.009230 0.000000 0.000000 0.000000 -2.985515 1.652781 0.043074 -7.996338 71.561404 5.767545 10.883201 9.295117 -0.887386 4.461560 69.251918 -3.081623
62.827033 47.100051 0.009352 0.000000 0.000000 0.000000 -2.796883 1.504679 0.036735 -7.415218 71.910098 5.382147 11.030501 9.819357 -0.950440 4.963815 69.334904 -3.434059
62.944889 47.111541 0.009376 0.000000 0.000000 0.000000 -2.683624 0.874552 0.020485 -7.112871 72.032796 5.174047 11.237577 9.655863 -0.952195 5.201618 69.591888 -3.615957
63.135132 47.122419 0.009448 0.000000 0.000000 0.000000 -2.651350 2.119356 0.049051 -6.417313 72.339366 4.693835 11.482149 10.129317 -1.021008 5.620092 69.737311 -3.917677
63.320795 47.126628 0.009432 0.000000 0.000000 0.000000 -2.221790 2.186373 0.042402 -6.226800 72.302350 4.551273 12.010526 10.246018 -1.080701 5.825253 69.408334 -4.036032
63.501212 47.176607 0.009140 0.000000 0.000000 0.000000 -1.939983 1.879103 0.031818 -5.815946 72.303321 4.250800 12.435657 10.223042 -1.116725 6.056284 68.905774 -4.157089
63.594079 47.176965 0.009226 0.000000 0.000000 0.000000 -1.714470 3.400028 0.050888 -5.827383 72.028333 4.237766 12.316671 10.794926 -1.168180 6.483374 68.282137 -4.398890
63.740304 47.222948 0.009147 0.000000 0.000000 0.000000 -2.016574 2.731363 0.048080 -4.914714 72.020373 3.573117 12.591117 10.771121 -1.191767 6.708751 67.917252 -4.520887
63.797060 47.217548 0.009254 0.000000 0.000000 0.000000 -1.914371 2.657463 0.044408 -4.927093 71.886472 3.573334 12.592483 11.250976 -1.245328 6.778724 67.939952 -4.570051
63.852745 47.221337 0.009169 0.000000 0.000000 0.000000 -1.887492 0.650941 0.010723 -4.734861 72.142392 3.449997 12.551788 10.511503 -1.159218 6.963210 68.203351 -4.717889
63.887906 47.211339 0.009140 0.000000 0.000000 0.000000 -1.848420 -0.044079 -0.000711 -4.709095 72.169162 3.432896 12.579667 10.441721 -1.154058 6.922690 68.231834 -4.692907
63.907954 47.204553 0.009090 0.000000 0.000000 0.000000 -1.809717 -1.988320 -0.031407 -4.680688 72.371388 3.424837 12.562331 10.182151 -1.123655 6.865806 68.502652 -4.677995
63.899595 47.203726 0.008978 0.000000 0.000000 0.000000 -1.936929 -3.772402 -0.063794 -4.723262 72.600535 3.470520 12.433038 9.850652 -1.075616 6.795893 68.954181 -4.669580
63.891572 47.197941 0.008955 0.000000 0.000000 0.000000 -2.015172 -4.539861 -0.079887 -4.765812 72.652235 3.505111 12.287873 9.460482 -1.020665 6.838091 69.148921 -4.715724
63.885543 47.196487 0.009047 0.000000 0.000000 0.000000 -2.030832 -4.670986 -0.082835 -4.907456 72.372373 3.590918 12.125166 8.989945 -0.956752 6.817392 69.013843 -4.689594
63.831303 47.187388 0.009669 0.000000 0.000000 0.000000 -2.170721 -4.054066 -0.076838 -5.344635 71.684559 3.862010 11.914272 8.609198 -0.900027 6.778605 68.239297 -4.595751
63.701445 47.169831 0.010212 0.000000 0.000000 0.000000 -2.400001 -2.924715 -0.061277 -5.734440 71.056025 4.096244 11.364623 8.754329 -0.872750 6.798729 67.504413 -4.546096
63.484576 47.149880 0.010318 0.000000 0.000000 0.000000 -2.992942 -1.566665 -0.040931 -6.161503 70.899847 4.388923 10.496041 8.864383 -0.815828 6.999292 67.433927 -4.674166
63.212764 47.071953 0.010535 0.000000 0.000000 0.000000 -3.587027 -1.405138 -0.044001 -6.723500 70.596910 4.762956 9.547174 8.708917 -0.728659 7.047913 67.321359 -4.696684
62.784070 47.027303 0.010916 0.000000 0.000000 0.000000 -4.414267 -1.028162 -0.039627 -7.682436 69.420922 5.325796 8.128907 7.882740 -0.561007 7.036932 66.185153 -4.589337
62.329954 46.935301 0.011518 0.000000 0.000000 0.000000 -5.486012 -0.858428 -0.041129 -8.274566 68.760720 5.666785 6.712496 7.729434 -0.453976 6.881805 65.427046 -4.423458
61.812943 46.902965 0.012533 0.000000 0.000000 0.000000 -6.162424 -0.094064 -0.005063 -9.506560 67.757447 6.391069 5.355913 7.855975 -0.368025 6.360323 64.640097 -4.026425
61.263222 46.879423 0.013103 0.000000 0.000000 0.000000 -6.784000 0.404301 0.023963 -11.047785 67.996148 7.463884 3.866210 8.103885 -0.273978 5.891428 65.040146 -3.758121
60.747117 46.874480 0.013954 0.000000 0.000000 0.000000 -7.681823 2.553479 0.171462 -12.070450 67.436314 8.072065 2.956461 9.554763 -0.247140 4.908702 64.839021 -3.118640
60.297510 46.873099 0.014138 0.000000 0.000000 0.000000 -7.147680 4.678719 0.292377 -14.310367 65.173391 9.175371 2.090391 9.909960 -0.181250 4.111056 63.302599 -2.534890
59.739220 46.858452 0.013927 0.000000 0.000000 0.000000 -6.946541 7.013164 0.426190 -16.565537 64.089641 10.413406 1.456793 9.550581 -0.121704 2.650939 62.982346 -1.624117
59.117514 46.844463 0.014325 0.000000 0.000000 0.000000 -7.592842 5.616144 0.372969 -17.741062 65.356355 11.433728 1.093192 8.425128 -0.080522 0.622162 64.086054 -0.389422
58.376253 46.843740 0.014114 0.000000 0.000000 0.000000 -8.712910 5.717419 0.435920 -18.949937 65.415978 12.234830 0.725051 7.676481 -0.048645 -1.829452 64.578203 1.156103
57.738277 46.827725 0.014120 0.000000 0.000000 0.000000 -9.816474 6.018113 0.517278 -20.080733 65.336326 12.953826 -0.062092 7.606102 0.004127 -3.360083 64.746015 2.130519
57.112864 46.835156 0.013439 0.000000 0.000000 0.000000 -10.523428 7.141097 0.658492 -21.618284 64.905585 13.845023 -0.636715 7.294100 0.040584 -5.012031 64.942083 3.190666
56.577629 46.861567 0.012632 0.000000 0.000000 0.000000 -10.875079 8.372861 0.798412 -22.743980 64.925314 14.582486 -1.911355 9.325488 0.155905 -5.554179 65.068605 3.544725
55.964634 46.875709 0.012593 0.000000 0.000000 0.000000 -11.711233 10.076593 1.036070 -23.811524 64.311502 15.100467 -2.880403 10.619129 0.267748 -6.511881 64.935638 4.146042
55.380918 46.888041 0.012326 0.000000 0.000000 0.000000 -12.597141 9.523619 1.053574 -24.371303 63.912225 15.344017 -3.704510 9.411095 0.305033 -7.671549 65.131197 4.904010
54.864611 46.917075 0.012336 0.000000 0.000000 0.000000 -13.336533 9.059308 1.061319 -24.539038 63.843422 15.431196 -4.925239 8.968416 0.386495 -8.307728 65.205447 5.319075
54.398136 46.951427 0.012161 0.000000 0.000000 0.000000 -13.810087 8.594641 1.042761 -24.809211 63.958393 15.638817 -5.884759 8.652818 0.445595 -9.160185 65.343205 5.881699
53.956851 46.982512 0.012301 0.000000 0.000000 0.000000 -14.526101 8.255562 1.053945 -25.074962 64.106461 15.854534 -6.956025 8.553145 0.520802 -9.680820 65.452481 6.229936
53.588584 47.024798 0.012322 0.000000 0.000000 0.000000 -15.240557 7.087411 0.949405 -24.858990 64.422908 15.810779 -7.614281 8.124503 0.541550 -10.399460 65.634693 6.717219
53.274508 47.034173 0.012475 0.000000 0.000000 0.000000 -16.383670 5.597296 0.806397 -24.459355 64.829637 15.673034 -7.712328 7.597620 0.512863 -11.350822 65.679171 7.340209
52.990130 47.086900 0.012827 0.000000 0.000000 0.000000 -17.466872 5.354707 0.823169 -24.001425 65.654884 15.617199 -8.091804 7.324704 0.518794 -11.983698 65.959900 7.792782
52.705370 47.121572 0.012816 0.000000 0.000000 0.000000 -18.485334 2.657822 0.432580 -23.858577 66.267043 15.703071 -7.895620 4.240346 0.292766 -13.199367 66.860127 8.735102
52.464652 47.178127 0.012923 0.000000 0.000000 0.000000 -19.301054 1.742832 0.296381 -23.430403 66.747535 15.556585 -8.387414 3.031526 0.222338 -13.491472 67.355579 9.013276
52.252424 47.234878 0.012931 0.000000 0.000000 0.000000 -19.998612 0.293438 0.051737 -23.304638 67.091182 15.571734 -8.818811 3.004535 0.231735 -13.884946 67.439495 9.292223
52.076983 47.296825 0.012943 0.000000 0.000000 0.000000 -20.526154 -0.766522 -0.138792 -23.174087 67.985429 15.743600 -9.259774 2.442502 0.197831 -13.949546 68.590968 9.539304
51.907955 47.325628 0.012845 0.000000 0.000000 0.000000 -20.831593 -2.959034 -0.544045 -23.146418 68.197432 15.786569 -9.673001 1.444058 0.122194 -14.163173 68.618835 9.691218
51.728049 47.339414 0.012933 0.000000 0.000000 0.000000 -20.948454 -2.569272 -0.475068 -23.471451 67.448149 15.789915 -10.025888 1.535423 0.134690 -14.311658 68.051441 9.690078
51.671463 47.341402 0.012956 0.000000 0.000000 0.000000 -20.870951 -2.374938 -0.437463 -23.620196 67.303836 15.848798 -10.085235 1.532625 0.135244 -14.377248 68.029368 9.730717
51.588377 47.342609 0.012755 0.000000 0.000000 0.000000 -20.537369 -2.134956 -0.386825 -24.241217 66.217116 15.944219 -10.258335 1.628979 0.146228 -14.455585 66.904967 9.579322
51.513940 47.341709 0.012823 0.000000 0.000000 0.000000 -20.516193 -1.785132 -0.323090 -24.498553 65.754962 15.976587 -10.253937 1.553577 0.139399 -14.640518 66.639137 9.653988
51.464696 47.336677 0.012810 0.000000 0.000000 0.000000 -20.510270 -1.522892 -0.275540 -24.607875 65.470312 15.962982 -10.379122 1.589002 0.144328 -14.645985 66.029794 9.546641
51.398079 47.335964 0.012637 0.000000 0.000000 0.000000 -20.180550 -1.023808 -0.182193 -25.214793 64.762220 16.145607 -10.509847 1.719599 0.158170 -14.705499 65.759946 9.536576
51.373196 47.335176 0.012756 0.000000 0.000000 0.000000 -20.142100 -0.846252 -0.150302 -25.228884 64.680121 16.129563 -10.558867 1.604349 0.148260 -14.729106 65.702747 9.541578
51.330984 47.335818 0.012914 0.000000 0.000000 0.000000 -19.991623 0.125675 0.022150 -25.433711 62.842421 15.699040 -10.765954 1.642087 0.154741 -14.696682 63.886076 9.193997
51.297452 47.350672 0.012929 0.000000 0.000000 0.000000 -20.066894 3.314191 0.586535 -25.436677 62.519992 15.602999 -10.876494 4.211936 0.401161 -14.702987 64.333301 9.277772
51.288423 47.351246 0.012364 0.000000 0.000000 0.000000 -20.118492 3.867466 0.686315 -25.437329 62.827203 15.696691 -10.873214 5.820185 0.554394 -14.646045 64.617843 9.292381
51.269650 47.352615 0.012346 0.000000 0.000000 0.000000 -19.870062 5.764274 1.010485 -25.727191 62.574866 15.801820 -10.950042 6.342284 0.608518 -14.663201 64.623343 9.304322
51.250617 47.352663 0.011963 0.000000 0.000000 0.000000 -19.751212 6.194026 1.079333 -25.874972 62.644141 15.915924 -11.025737 7.136017 0.689621 -14.667133 64.513170 9.287124
51.252736 47.351305 0.012204 0.000000 0.000000 0.000000 -19.778494 6.217348 1.084931 -25.807377 63.352955 16.092502 -10.905642 7.398209 0.707193 -14.743850 65.328405 9.483179
51.250899 47.344747 0.012221 0.000000 0.000000 0.000000 -19.655352 6.186740 1.072725 -25.925851 62.929223 16.036214 -10.901633 7.295860 0.697125 -14.745963 64.874469 9.402436
51.253211 47.333615 0.012247 0.000000 0.000000 0.000000 -19.582054 6.070333 1.048501 -25.989802 62.325587 15.889455 -10.934223 6.520509 0.624745 -14.710679 64.274156 9.272077
51.250724 47.329821 0.012426 0.000000 0.000000 0.000000 -19.371636 6.165923 1.053377 -26.177868 62.223205 15.975119 -10.935270 6.594618 0.631921 -14.724918 64.049647 9.240968
51.262811 47.319856 0.012433 0.000000 0.000000 0.000000 -19.337638 6.117072 1.043147 -26.171151 62.280643 15.988796 -10.902166 6.324269 0.604117 -14.685092 64.123865 9.229031
51.264113 47.319736 0.012456 0.000000 0.000000 0.000000 -19.205859 6.083869 1.030270 -26.262477 62.374036 16.075012 -10.920657 6.328786 0.605581 -14.667345 64.154455 9.223251
51.283757 47.296254 0.012485 0.000000 0.000000 0.000000 -19.119892 5.736073 0.966845 -26.241296 62.502006 16.101745 -10.854530 5.575718 0.530152 -14.655338 64.542466 9.284841
51.288669 47.287428 0.012797 0.000000 0.000000 0.000000 -19.081661 5.391395 0.906811 -26.244473 62.723231 16.172991 -10.948269 5.183112 0.497051 -14.519977 64.743778 9.234208
51.317972 47.154082 0.012626 0.000000 0.000000 0.000000 -18.840525 2.992911 0.496670 -26.171578 62.032336 15.911892 -10.839370 1.922217 0.182386 -14.455041 63.974619 9.057345
51.319697 47.151178 0.012577 0.000000 0.000000 0.000000 -18.833268 1.108928 0.183918 -26.166319 63.817662 16.467596 -10.853019 -2.469973 -0.234670 -14.408061 65.334850 9.266985
51.461048 47.258189 0.013535 0.000000 0.000000 0.000000 -18.549072 2.977899 0.486397 -26.014525 66.857823 17.339907 -10.644967 -1.070332 -0.099718 -14.244453 68.250144 9.680251
51.510517 47.252668 0.014254 0.000000 0.000000 0.000000 -18.402001 2.280837 0.369503 -26.109774 62.681504 16.075152 -10.451059 -6.076085 -0.556214 -14.180286 64.867992 9.038378
51.829116 47.263208 0.013652 0.000000 0.000000 0.000000 -17.758370 -16.910922 -2.660755 -25.985306 66.738710 17.281513 -9.029413 -15.010198 -1.191987 -14.063533 66.778978 9.295866
51.938465 47.316776 0.014055 0.000000 0.000000 0.000000 -17.301907 -23.016006 -3.548510 -26.297647 62.529910 16.145838 -8.601020 -22.835665 -1.740191 -14.029152 64.517508 8.881413
52.170700 47.438388 0.015608 0.000000 0.000000 0.000000 -16.786047 -18.697810 -2.782925 -26.241020 62.408181 16.072250 -7.940018 -18.719942 -1.310804 -13.485484 63.571161 8.380477
52.255797 47.441597 0.016778 0.000000 0.000000 0.000000 -16.389176 -25.747256 -3.770074 -26.402866 65.113160 17.035323 -7.952558 -24.245971 -1.710839 -13.307039 66.597435 8.763045
52.459899 47.493686 0.018324 0.000000 0.000000 0.000000 -15.813440 -23.913276 -3.369193 -25.911577 66.581439 17.180859 -7.900531 -22.286418 -1.558585 -13.052598 66.878319 8.640467
52.724817 47.496615 0.017788 0.000000 0.000000 0.000000 -14.920581 -22.804248 -3.025511 -25.546725 66.574680 16.932184 -7.702456 -22.056468 -1.503324 -12.596493 67.096280 8.371547
53.065661 47.502446 0.016907 0.000000 0.000000 0.000000 -14.192457 -22.153385 -2.792196 -25.058150 67.327958 16.837920 -7.288373 -21.150141 -1.362474 -11.993175 67.944233 8.097142
53.359756 47.512865 0.014320 0.000000 0.000000 0.000000 -13.600784 -25.277462 -3.063462 -25.254179 67.892110 17.151031 -6.378876 -21.339835 -1.203031 -11.763642 68.793402 8.068789
53.840759 47.483850 0.010238 0.000000 0.000000 0.000000 -12.820758 -29.566415 -3.396564 -24.604643 68.498019 16.890957 -4.569560 -22.757464 -0.920088 -11.681083 68.717468 8.000604
54.319921 47.380556 0.010153 0.000000 0.000000 0.000000 -11.970892 -29.658410 -3.180138 -24.246431 68.100501 16.518984 -3.208038 -24.915942 -0.708913 -10.865117 67.557069 7.279717
54.659753 47.179611 0.010166 0.000000 0.000000 0.000000 -11.594979 -28.955611 -3.003446 -23.706609 63.354090 14.758564 -2.913479 -27.164351 -0.704028 -9.637344 62.184832 5.820609
55.107456 47.030315 0.009369 0.000000 0.000000 0.000000 -11.430334 -29.437417 -3.011986 -22.251649 64.045654 14.023866 -2.763497 -26.377460 -0.647718 -8.059778 62.660390 4.911338
55.574088 46.922627 0.009961 0.000000 0.000000 0.000000 -11.115950 -30.664015 -3.056526 -20.862811 65.409919 13.483664 -2.076856 -25.574460 -0.471412 -6.953662 64.423362 4.384180
56.268309 46.848261 0.008719 0.000000 0.000000 0.000000 -10.031575 -33.052686 -2.983458 -19.402621 66.118714 12.698654 -0.317200 -25.134326 -0.070712 -6.241382 63.979801 3.900871
56.858072 46.748626 0.007685 0.000000 0.000000 0.000000 -8.825994 -33.636277 -2.672577 -18.925632 66.378879 12.444255 0.978959 -25.220602 0.219013 -5.252914 62.396332 3.182460
57.410756 46.666448 0.006243 0.000000 0.000000 0.000000 -8.576868 -33.482807 -2.584331 -17.608653 68.404083 12.018577 2.658978 -24.330021 0.573290 -4.802735 62.508924 2.915961
58.035234 46.605588 0.003329 0.000000 0.000000 0.000000 -7.901118 -32.885317 -2.335198 -16.129072 68.279059 10.975552 4.439382 -24.146670 0.950014 -4.315186 62.641272 2.626585
58.623925 46.605316 0.002087 0.000000 0.000000 0.000000 -6.851153 -31.015559 -1.903088 -15.495293 67.671277 10.422102 5.678147 -23.568123 1.185506 -3.318568 61.523307 1.975611
59.267610 46.589884 0.000777 0.000000 0.000000 0.000000 -6.186151 -28.992064 -1.600842 -13.726968 67.055849 9.119760 7.104596 -22.932411 1.442856 -2.585060 61.643889 1.542516
59.993711 46.572663 0.000145 0.000000 0.000000 0.000000 -5.699208 -23.753172 -1.199525 -11.542268 66.958484 7.648192 8.617191 -20.628962 1.571123 -1.717621 62.127397 1.034701
60.727102 46.583374 -0.000064 0.000000 0.000000 0.000000 -5.856444 -22.848257 -1.184422 -9.169034 68.378518 6.235921 10.958161 -18.335527 1.773777 -1.934685 62.953975 1.184578
61.331490 46.768935 0.000914 0.000000 0.000000 0.000000 -5.015612 -23.346457 -1.036874 -8.561905 70.165513 6.019232 13.274732 -16.668643 1.953253 -2.496070 66.167140 1.626296
61.941007 47.014557 0.001579 0.000000 0.000000 0.000000 -3.571503 -23.641193 -0.747697 -8.177371 70.821900 5.818590 15.479500 -19.512750 2.677459 -3.590170 66.649965 2.360981
62.474546 47.377682 0.000815 0.000000 0.000000 0.000000 -2.574339 -23.843483 -0.543606 -7.781264 72.672142 5.727491 17.401260 -24.594044 3.821152 -4.431704 67.722540 2.974451
63.012725 47.583106 0.000634 0.000000 0.000000 0.000000 -3.672946 -25.016227 -0.815084 -4.868200 72.937685 3.599166 19.187120 -26.552515 4.567616 -4.575343 68.939960 3.141900
63.396731 47.773720 0.000914 0.000000 0.000000 0.000000 -2.569004 -24.246192 -0.551918 -4.857318 72.954316 3.592206 20.173830 -27.057006 4.901708 -4.376257 68.878439 3.001661
63.834620 47.826509 0.001015 0.000000 0.000000 0.000000 -1.160798 -23.272182 -0.239047 -4.864256 72.694641 3.580326 20.714799 -26.498107 4.928117 -3.357730 68.919192 2.304568
64.163080 47.829391 0.000765 0.000000 0.000000 0.000000 -0.040969 -22.042157 -0.007979 -5.015475 73.097439 3.718930 20.565582 -24.203141 4.455182 -1.919937 69.607557 1.334643
64.370644 47.808553 0.000124 0.000000 0.000000 0.000000 0.388397 -22.379138 0.076831 -4.733527 72.776226 3.489248 20.422685 -21.556706 3.927993 -1.024494 68.990143 0.703996
64.585385 47.788867 -0.000100 0.000000 0.000000 0.000000 1.352067 -23.824141 0.285235 -4.916880 72.682506 3.618279 20.615478 -20.282331 3.726449 -0.435749 68.796202 0.298343
64.692274 47.734007 -0.000214 0.000000 0.000000 0.000000 1.878007 -25.080558 0.417765 -5.552651 72.675280 4.085913 20.256191 -19.661435 3.545927 0.342885 68.557762 -0.233716
64.845631 47.706935 -0.000471 0.000000 0.000000 0.000000 2.276663 -25.660529 0.518575 -5.325863 72.653160 3.917336 19.953161 -18.313272 3.248244 1.004005 68.512489 -0.683772
64.943233 47.696133 -0.000628 0.000000 0.000000 0.000000 2.681615 -25.053521 0.595917 -5.550549 72.587103 4.077791 19.772391 -20.425914 3.596827 1.402847 67.370308 -0.935083
65.042990 47.688738 -0.000312 0.000000 0.000000 0.000000 2.874032 -22.996887 0.584765 -5.421018 72.448608 3.972491 19.631812 -24.772148 4.351919 1.890923 66.582662 -1.241759
65.146723 47.675441 -0.000239 0.000000 0.000000 0.000000 2.749323 -22.893117 0.556789 -4.968326 72.009214 3.611378 19.258919 -25.020770 4.311920 2.758539 65.669192 -1.780316
65.176129 47.631060 -0.000279 0.000000 0.000000 0.000000 2.664880 -23.174537 0.546499 -4.961910 71.393318 3.566133 18.735640 -24.631162 4.125426 3.420037 65.390367 -2.195602
65.160826 47.625695 -0.000427 0.000000 0.000000 0.000000 2.391322 -23.913294 0.506471 -4.947101 71.098575 3.536232 18.414444 -21.168389 3.469779 3.725129 64.942871 -2.371056
65.149438 47.590154 -0.000440 0.000000 0.000000 0.000000 2.142625 -23.980266 0.455094 -4.790089 71.770317 3.466517 17.928967 -16.195138 2.571483 4.002462 66.996548 -2.649604
65.124732 47.552341 -0.000465 0.000000 0.000000 0.000000 1.944039 -24.003474 0.413318 -4.703438 71.872700 3.410180 17.356625 -13.385086 2.052144 4.401061 67.193874 -2.924522
65.104285 47.520296 -0.000874 0.000000 0.000000 0.000000 1.417065 -22.050789 0.276115 -4.187339 72.817076 3.088763 16.891718 -9.684156 1.441310 4.844658 67.790459 -3.255954
65.029603 47.479832 -0.000633 0.000000 0.000000 0.000000 1.129543 -21.647647 0.215965 -4.109681 72.449647 3.011165 16.182829 -9.116599 1.298776 5.228256 67.286586 -3.480688
64.855659 47.408186 -0.000899 0.000000 0.000000 0.000000 0.467265 -21.256639 0.087686 -3.914471 72.265786 2.858444 15.257770 -8.983201 1.205651 5.574073 66.997098 -3.690831
64.605582 47.332926 -0.000373 0.000000 0.000000 0.000000 -0.215284 -21.791642 -0.041441 -3.989895 72.117868 2.905655 14.372544 -8.962316 1.132295 5.585834 67.257610 -3.716910
64.211673 47.253433 -0.000879 0.000000 0.000000 0.000000 -1.651784 -21.411411 -0.312299 -3.408565 71.787907 2.467188 13.161447 -9.233791 1.067519 5.388841 67.851338 -3.626120
63.775733 47.180390 -0.000782 0.000000 0.000000 0.000000 -2.818723 -21.922571 -0.546034 -3.387659 70.699041 2.403342 11.782114 -9.714819 1.004779 5.291019 67.711804 -3.550897
63.266078 47.120942 -0.000966 0.000000 0.000000 0.000000 -4.201870 -21.861251 -0.811832 -3.535248 69.678395 2.461053 10.421450 -9.900641 0.905132 4.929912 66.095602 -3.208514
62.789288 47.068715 -0.001234 0.000000 0.000000 0.000000 -4.929840 -21.937233 -0.956029 -3.853499 69.593595 2.678454 9.444816 -10.282664 0.851709 4.169455 65.698475 -2.692797
62.284356 47.022387 -0.001441 0.000000 0.000000 0.000000 -5.590128 -21.953025 -1.085061 -4.808689 69.051557 3.309130 8.656839 -11.392850 0.865152 3.373477 64.988276 -2.149025
61.711499 46.966740 -0.001572 0.000000 0.000000 0.000000 -6.712919 -21.973841 -1.304706 -5.832597 69.958017 4.082644 8.295367 -11.387854 0.828533 1.815511 66.317029 -1.186218
61.173099 46.952116 -0.001642 0.000000 0.000000 0.000000 -6.801049 -23.234666 -1.399773 -7.263072 70.158866 5.104142 7.359294 -12.268363 0.791999 1.506608 66.663941 -0.990892
60.654199 46.881275 -0.001480 0.000000 0.000000 0.000000 -6.749896 -23.204008 -1.387338 -8.853725 70.376405 6.249136 6.451743 -12.278812 0.694706 1.048510 67.376923 -0.698975
60.034621 46.854289 -0.001179 0.000000 0.000000 0.000000 -7.734802 -23.040473 -1.578807 -9.714648 70.779494 6.909420 5.268486 -12.006558 0.554431 0.436045 68.150677 -0.294952
59.420079 46.851397 -0.000709 0.000000 0.000000 0.000000 -8.308464 -24.077796 -1.774884 -11.181801 70.933189 7.978532 4.588650 -12.295731 0.494524 -0.926619 68.219590 0.627606
58.788809 46.866857 -0.000063 0.000000 0.000000 0.000000 -9.484432 -24.471134 -2.061258 -12.276205 71.010335 8.774672 3.883919 -12.389005 0.421711 -2.151275 68.182502 1.456136
58.230853 46.906322 0.000897 0.000000 0.000000 0.000000 -10.181732 -25.835587 -2.341095 -13.685585 71.276626 9.834466 3.234300 -13.478702 0.382295 -3.106347 68.267766 2.106114
57.668966 46.933208 0.001747 0.000000 0.000000 0.000000 -10.653550 -25.744178 -2.441196 -15.116244 71.170370 10.846923 2.270644 -13.681750 0.272436 -3.618550 68.713863 2.474118
57.042813 46.970055 0.003363 0.000000 0.000000 0.000000 -11.401921 -26.391236 -2.681744 -16.619474 71.135284 11.924981 1.646892 -14.257520 0.205985 -4.985831 68.864075 3.419110
56.443289 47.000042 0.003254 0.000000 0.000000 0.000000 -11.532932 -27.242493 -2.803552 -18.607639 71.177963 13.373588 1.428244 -14.840835 0.186023 -6.854743 69.497819 4.758055
55.827460 47.044517 0.003286 0.000000 0.000000 0.000000 -12.228099 -27.505904 -3.003589 -19.854298 71.161552 14.273786 0.545274 -15.385793 0.073656 -8.292148 69.437449 5.750982
55.219796 47.113580 0.003795 0.000000 0.000000 0.000000 -13.980015 -27.128831 -3.388778 -20.077695 71.714557 14.582137 -0.367105 -15.567596 -0.050182 -9.576115 69.645909 6.669274
54.647198 47.185144 0.003957 0.000000 0.000000 0.000000 -15.416972 -28.116593 -3.882525 -20.268111 71.891037 14.769089 -1.479175 -16.955623 -0.220491 -10.630232 69.793609 7.425802
54.045691 47.250511 0.003971 0.000000 0.000000 0.000000 -16.992684 -27.706024 -4.219558 -20.313229 72.004908 14.832921 -1.975681 -16.874586 -0.293086 -12.223554 69.677150 8.524459
53.433311 47.342357 0.003904 0.000000 0.000000 0.000000 -18.953529 -27.474303 -4.673522 -20.039267 72.136210 14.665832 -2.979741 -16.886261 -0.442400 -13.116071 69.619531 9.139825
53.013954 47.500633 0.003776 0.000000 0.000000 0.000000 -20.390563 -27.323448 -5.006049 -19.835513 71.571556 14.367121 -2.065878 -16.836304 -0.305764 -15.453198 69.419351 10.737986
52.644609 47.662804 0.002685 0.000000 0.000000 0.000000 -21.298668 -26.783445 -5.126595 -20.190258 71.567586 14.625545 -2.462307 -14.628754 -0.316105 -16.106066 69.474003 11.206030
52.348791 47.788811 0.001901 0.000000 0.000000 0.000000 -21.533653 -25.117271 -4.851395 -20.856828 71.457041 15.083082 -3.630869 -11.366402 -0.361454 -15.685465 69.609034 10.938781
52.138601 47.871961 0.002205 0.000000 0.000000 0.000000 -21.622874 -24.076190 -4.664053 -21.707214 71.342195 15.672257 -3.885754 -10.537118 -0.358456 -15.840068 69.635993 11.052818
51.910870 47.887641 0.004148 0.000000 0.000000 0.000000 -21.942902 -23.486071 -4.615431 -22.158719 71.401030 16.019263 -4.275962 -10.603311 -0.396976 -16.115079 69.887448 11.298396
51.720817 47.882120 0.004298 0.000000 0.000000 0.000000 -22.124532 -23.783849 -4.715220 -22.588078 71.244726 16.287178 -5.143348 -10.743844 -0.483969 -16.005678 69.879798 11.219596
51.561977 47.876348 0.005082 0.000000 0.000000 0.000000 -21.885108 -24.246786 -4.756378 -23.418239 71.272055 16.902130 -5.586822 -12.327657 -0.603828 -16.128944 70.022979 11.336507
51.481812 47.865088 0.005926 0.000000 0.000000 0.000000 -21.718346 -23.879688 -4.645794 -23.878026 71.253722 17.232874 -5.766080 -13.200226 -0.667726 -16.166579 70.286536 11.418477
51.463597 47.862267 0.006035 0.000000 0.000000 0.000000 -21.567030 -23.652055 -4.567479 -24.043178 71.216331 17.341987 -5.921903 -13.370514 -0.694729 -16.095655 70.276984 11.366050
51.449294 47.867620 0.005794 0.000000 0.000000 0.000000 -21.382520 -23.510150 -4.499604 -23.978430 71.404945 17.353912 -6.118697 -12.942324 -0.694670 -15.935600 70.408426 11.279555
51.413070 47.873086 0.005499 0.000000 0.000000 0.000000 -21.495156 -23.469139 -4.515737 -23.791661 71.186205 17.148631 -6.361688 -13.038468 -0.727724 -15.862384 70.105007 11.164804
51.389924 47.874226 0.005114 0.000000 0.000000 0.000000 -21.391336 -23.062886 -4.413571 -23.862781 71.178035 17.198063 -6.535967 -12.932632 -0.741581 -15.757630 70.195122 11.109043
51.373918 47.874647 0.004663 0.000000 0.000000 0.000000 -21.288500 -22.899691 -4.359985 -23.865894 70.925008 17.121404 -6.692163 -13.222251 -0.776498 -15.671120 70.182456 11.045088
51.372780 47.871728 0.005350 0.000000 0.000000 0.000000 -21.232562 -22.782909 -4.325523 -23.864642 70.714199 17.054909 -6.797145 -13.417334 -0.800449 -15.596777 69.864649 10.928071
51.379234 47.863497 0.005614 0.000000 0.000000 0.000000 -21.178613 -22.774276 -4.312611 -23.874629 70.494805 16.994037 -6.871307 -13.433331 -0.810177 -15.504500 69.258316 10.741735
51.392689 47.854282 0.005388 0.000000 0.000000 0.000000 -21.094126 -22.425023 -4.227498 -23.881951 70.663835 17.051802 -6.899505 -13.101900 -0.793261 -15.612925 69.566876 10.879375
51.401976 47.850084 0.005080 0.000000 0.000000 0.000000 -20.895557 -20.251409 -3.772294 -24.029390 69.556694 16.814643 -7.133571 -11.608464 -0.726063 -15.607511 69.037132 10.769247
51.409161 47.849299 0.004780 0.000000 0.000000 0.000000 -20.874492 -19.809234 -3.684505 -24.276338 69.473420 16.964158 -7.580640 -11.122391 -0.739174 -15.237733 69.189367 10.542264
51.414406 47.849476 0.004430 0.000000 0.000000 0.000000 -20.867547 -19.773862 -3.676548 -24.336076 69.534449 17.025621 -7.778173 -10.939310 -0.745931 -15.030438 69.277375 10.414979
51.431288 47.852585 0.004359 0.000000 0.000000 0.000000 -20.846328 -19.654362 -3.650105 -24.277223 69.665725 17.024767 -7.834230 -10.568822 -0.725731 -14.903963 69.355162 10.341738
51.459523 47.854088 0.004473 0.000000 0.000000 0.000000 -20.807439 -19.192844 -3.556017 -24.236653 69.708511 17.009219 -7.959887 -9.897149 -0.690304 -14.794358 69.419953 10.277584
51.517911 47.855639 0.004509 0.000000 0.000000 0.000000 -20.711578 -19.017076 -3.506284 -24.128204 69.722090 16.936163 -7.976082 -9.731359 -0.680070 -14.682573 69.428443 10.201089
51.582856 47.856385 0.004104 0.000000 0.000000 0.000000 -20.652125 -19.097710 -3.511095 -24.001898 69.770089 16.860998 -8.126143 -9.699569 -0.690632 -14.470203 69.331978 10.034743
51.669878 47.861186 0.003842 0.000000 0.000000 0.000000 -20.604837 -19.017307 -3.487872 -23.805573 69.796529 16.729140 -8.133948 -9.615756 -0.685296 -14.298732 69.314652 9.911994
51.743646 47.859792 0.003855 0.000000 0.000000 0.000000 -20.677866 -19.025792 -3.502088 -23.523999 69.864927 16.549133 -8.007100 -9.649156 -0.676928 -14.283042 69.314718 9.901071
51.893443 47.859882 0.003588 0.000000 0.000000 0.000000 -20.434833 -18.963891 -3.448602 -23.263522 69.897557 16.373083 -7.771648 -9.492769 -0.646265 -14.145923 69.240693 9.792043
52.013031 47.854319 0.004692 0.000000 0.000000 0.000000 -20.147102 -18.793837 -3.368033 -23.171254 69.922807 16.314786 -7.562102 -9.177807 -0.607835 -14.011253 69.323443 9.713249
52.173935 47.850244 0.004186 0.000000 0.000000 0.000000 -19.935795 -19.040557 -3.376528 -22.750576 70.113274 16.070575 -7.273931 -8.952870 -0.570222 -13.811097 69.270969 9.564459
52.310659 47.839844 0.004078 0.000000 0.000000 0.000000 -19.887629 -19.682400 -3.483906 -22.333787 70.382077 15.850157 -6.989350 -9.013455 -0.551579 -13.626024 69.424990 9.462678
52.490464 47.832882 0.004252 0.000000 0.000000 0.000000 -19.541797 -19.797394 -3.442543 -22.085202 70.625392 15.741400 -6.730347 -9.197839 -0.542002 -13.277192 69.620365 9.252760
52.665393 47.820885 0.004283 0.000000 0.000000 0.000000 -19.395844 -19.711328 -3.401206 -21.822094 70.848742 15.615152 -6.264127 -9.411790 -0.516165 -13.111407 70.015391 9.203774
52.888620 47.812396 0.004779 0.000000 0.000000 0.000000 -18.949410 -19.721427 -3.323238 -21.702065 71.287709 15.652970 -5.654136 -10.247418 -0.507385 -12.972033 70.598703 9.204081
53.130071 47.793351 0.005252 0.000000 0.000000 0.000000 -18.310032 -19.866106 -3.233210 -21.631593 71.443572 15.645852 -5.037841 -10.483224 -0.462464 -12.918090 70.478547 9.145367
53.489442 47.717439 0.006089 0.000000 0.000000 0.000000 -17.255600 -20.476474 -3.139649 -21.486042 71.557452 15.571584 -4.248116 -11.434132 -0.425489 -12.566927 70.426769 8.887256
53.669876 47.623424 0.006708 0.000000 0.000000 0.000000 -16.689178 -20.647682 -3.061062 -21.557727 71.353324 15.566242 -4.403451 -13.019857 -0.502727 -11.931263 69.928845 8.358748
53.986056 47.519608 0.006860 0.000000 0.000000 0.000000 -15.603232 -21.211294 -2.939204 -21.408151 71.128224 15.393782 -4.114436 -13.862774 -0.500400 -11.297849 69.756415 7.888235
54.260495 47.391984 0.007544 0.000000 0.000000 0.000000 -14.609106 -21.374675 -2.771570 -21.433010 71.101479 15.404352 -3.973542 -14.252560 -0.496978 -10.591095 69.909856 7.414345
54.545112 47.338498 0.008690 0.000000 0.000000 0.000000 -13.707750 -21.579311 -2.624401 -21.385621 70.190251 15.115984 -4.212879 -15.127322 -0.559647 -9.518524 68.326913 6.467932
54.761714 47.349411 0.008564 0.000000 0.000000 0.000000 -13.308219 -20.422566 -2.407714 -21.235498 70.166014 15.001966 -4.220373 -14.696691 -0.544504 -8.922243 68.744559 6.109416
55.028746 47.334430 0.009227 0.000000 0.000000 0.000000 -13.013619 -17.354385 -1.994443 -20.781151 69.235159 14.427999 -4.454011 -14.417089 -0.563627 -7.749015 68.767718 5.306956
55.563241 47.373891 0.009714 0.000000 0.000000 0.000000 -11.985727 -12.678897 -1.336407 -19.861715 68.659287 13.636549 -3.578746 -11.854938 -0.371681 -7.052089 68.637724 4.817259
56.373043 47.352120 0.009893 0.000000 0.000000 0.000000 -9.667721 -11.705347 -0.993325 -19.228485 68.594010 13.181361 -2.255185 -11.510629 -0.227326 -5.608885 68.616383 3.828931
57.060248 47.324565 0.010044 0.000000 0.000000 0.000000 -8.841008 -6.913783 -0.535121 -18.185490 70.546230 12.917332 -1.521305 -7.309729 -0.097181 -3.650274 68.764617 2.498189
57.766432 47.236116 0.009577 0.000000 0.000000 0.000000 -7.758539 -8.695466 -0.590766 -17.351058 71.491458 12.535100 -0.707124 -9.228118 -0.057069 -2.024273 69.914476 1.415236
58.463880 47.067079 0.011049 0.000000 0.000000 0.000000 -7.030820 -8.847900 -0.544628 -16.214789 71.153480 11.636567 1.192283 -10.810296 0.112816 -0.942784 69.607748 0.655354
59.164041 47.005844 0.009083 0.000000 0.000000 0.000000 -6.180895 -9.801613 -0.530488 -14.801990 70.548755 10.499603 1.727225 -10.087527 0.152454 1.035234 68.470117 -0.704481
59.880581 46.982090 0.008871 0.000000 0.000000 0.000000 -5.698423 -6.957791 -0.346708 -12.814122 71.067767 9.170374 2.447715 -8.173562 0.174913 2.966439 68.545355 -2.021737
60.470679 46.898650 0.008934 0.000000 0.000000 0.000000 -6.286697 -6.679700 -0.367243 -10.615852 70.748519 7.547820 3.479599 -6.334360 0.192599 4.471307 68.202602 -3.028283
61.049381 46.856622 0.008379 0.000000 0.000000 0.000000 -5.921839 -7.015852 -0.363340 -8.796732 70.293609 6.199328 3.992858 -5.115796 0.178447 5.626710 66.990589 -3.725256
61.599568 46.828039 0.008173 0.000000 0.000000 0.000000 -5.439217 -5.631213 -0.267708 -7.414095 69.802949 5.176135 4.826019 -3.060864 0.129015 6.513054 66.006696 -4.232803
62.198350 46.820109 0.007580 0.000000 0.000000 0.000000 -4.767526 -6.046866 -0.251956 -6.457882 69.312756 4.466847 6.710787 -2.828247 0.165853 6.957909 64.926087 -4.429610
62.772694 46.826081 0.007613 0.000000 0.000000 0.000000 -3.343989 -6.672240 -0.194984 -5.963859 68.383881 4.053778 8.916886 -3.104619 0.242132 6.883026 64.432605 -4.340355
63.311568 46.841608 0.007372 0.000000 0.000000 0.000000 -2.464939 -6.816301 -0.146819 -5.513890 66.766569 3.635020 11.005021 -3.275159 0.315592 6.499660 62.084332 -3.914580
63.850120 46.819830 0.006376 0.000000 0.000000 0.000000 -2.348586 -11.975864 -0.246380 -3.843518 65.587054 2.476907 13.017121 -3.785960 0.432084 6.346554 61.233443 -3.758339
64.226776 46.812738 0.005246 0.000000 0.000000 0.000000 -2.051267 -17.934763 -0.323726 -2.704501 66.795475 1.783324 14.499606 -5.399890 0.687435 5.944148 61.413488 -3.532374
64.731824 46.869110 0.002802 0.000000 0.000000 0.000000 -1.061298 -21.071587 -0.197391 -1.742244 68.237993 1.180480 16.149910 -6.784842 0.963704 5.712799 62.178953 -3.446567
65.063384 46.890157 0.000949 0.000000 0.000000 0.000000 -0.961471 -21.750510 -0.184724 -0.982349 69.338399 0.679439 17.402595 -6.875869 1.053550 5.864281 63.844730 -3.655323
65.454990 46.914037 0.000843 0.000000 0.000000 0.000000 -0.234413 -21.430036 -0.044357 -0.063150 71.477836 0.045443 18.429409 -6.564719 1.066117 6.063050 65.752376 -3.920920
65.910578 46.939842 -0.000036 0.000000 0.000000 0.000000 1.458825 -18.937482 0.243318 0.014286 71.325349 -0.010252 18.966188 -2.487111 0.415509 7.313442 66.088342 -4.761153
66.161293 46.990560 0.000510 0.000000 0.000000 0.000000 1.920028 -11.690416 0.196578 0.572947 70.381895 -0.404035 18.605726 0.537334 -0.088020 8.365131 66.085128 -5.446799
66.369817 47.009964 0.001044 0.000000 0.000000 0.000000 2.363198 -9.876263 0.204211 1.210965 71.131036 -0.865879 18.495437 1.189011 -0.193601 9.101381 66.352706 -5.957584
66.500926 47.053322 0.001666 0.000000 0.000000 0.000000 2.461896 -6.823766 0.146799 1.661007 70.734238 -1.179023 18.390785 1.235705 -0.200046 9.706758 65.918915 -6.302615
66.574082 47.080126 0.001813 0.000000 0.000000 0.000000 2.011108 -6.967989 0.122453 2.348713 71.365201 -1.686755 18.425218 1.760363 -0.285536 9.995350 66.587810 -6.573674
66.543344 47.075190 0.001277 0.000000 0.000000 0.000000 1.596003 -7.124817 0.099367 2.595485 71.176670 -1.857541 18.226756 1.242481 -0.199318 10.154867 66.432791 -6.659264
66.520071 47.072642 0.001345 0.000000 0.000000 0.000000 1.654685 -8.154774 0.117961 2.526648 71.288736 -1.812006 18.192857 0.911118 -0.145882 10.134543 66.510057 -6.655657
66.469422 47.066788 0.001456 0.000000 0.000000 0.000000 1.525449 -9.366688 0.124976 2.458146 71.241940 -1.761352 18.021665 -1.729840 0.274335 10.030733 65.672058 -6.482956
66.421658 47.080606 0.001815 0.000000 0.000000 0.000000 1.438437 -12.745261 0.160659 2.342890 71.791401 -1.695814 17.886212 -4.158684 0.654719 9.759379 66.452441 -6.401573
66.385308 47.068314 0.003114 0.000000 0.000000 0.000000 1.358641 -13.575297 0.161719 2.289656 71.786485 -1.657128 17.869262 -4.416560 0.694686 9.607759 66.493950 -6.306822
66.357589 47.080298 0.003100 0.000000 0.000000 0.000000 1.329829 -13.649913 0.159167 2.210202 71.813098 -1.600399 18.293244 -4.189247 0.674798 8.888510 66.538736 -5.838526
66.343364 47.088388 0.003157 0.000000 0.000000 0.000000 1.334717 -13.473461 0.157668 2.172031 71.869786 -1.574395 18.605895 -4.095511 0.671160 8.432346 66.639235 -5.548836
66.297573 47.101416 0.003376 0.000000 0.000000 0.000000 1.282703 -14.152749 0.159239 2.039098 72.137005 -1.485293 18.873186 -3.961500 0.658677 7.887259 66.759177 -5.201306
66.215748 47.116159 0.003404 0.000000 0.000000 0.000000 1.132665 -14.472595 0.143823 1.776351 72.217276 -1.295796 18.940677 -4.314807 0.720086 7.480568 66.829457 -4.939247
66.099811 47.118123 0.003377 0.000000 0.000000 0.000000 1.066595 -14.650726 0.137118 1.264794 72.274239 -0.923577 18.826833 -4.352030 0.721859 7.159224 66.842229 -4.727897
65.908220 47.118291 0.003333 0.000000 0.000000 0.000000 0.641414 -15.211993 0.085652 0.763954 72.367049 -0.558797 18.305011 -4.396055 0.708605 7.059817 67.451049 -4.716165
65.658033 47.116750 0.003220 0.000000 0.000000 0.000000 0.074132 -15.068172 0.009805 0.246672 72.331239 -0.180310 17.487751 -3.835487 0.590133 6.979967 67.718923 -4.686364
65.387917 47.111888 0.003181 0.000000 0.000000 0.000000 -0.758007 -14.627487 -0.097289 -0.014164 72.304464 0.010349 16.516518 -2.390534 0.347012 6.879265 68.171959 -4.658191
65.057167 47.104599 0.003155 0.000000 0.000000 0.000000 -1.613769 -15.089455 -0.213752 -0.478757 72.212869 0.349199 15.350804 -2.456448 0.331101 6.799827 68.202608 -4.606982
64.661509 47.080287 0.003229 0.000000 0.000000 0.000000 -2.563418 -15.399475 -0.346633 -1.085583 71.965381 0.788232 13.970238 -3.250401 0.398347 6.796367 68.181090 -4.602775
64.237237 47.070368 0.003667 0.000000 0.000000 0.000000 -3.252698 -15.000127 -0.428342 -2.082939 71.762814 1.506846 12.512235 -3.063997 0.335972 6.794634 68.077419 -4.592646
63.748297 47.055854 0.004099 0.000000 0.000000 0.000000 -4.582445 -14.082337 -0.566293 -2.612817 71.511136 1.881502 10.870100 -2.786516 0.265175 6.715284 68.006011 -4.532856
63.199371 47.025676 0.004458 0.000000 0.000000 0.000000 -5.484512 -12.597956 -0.605854 -3.870782 70.588379 2.740597 9.121995 -2.888560 0.230478 6.503072 67.508020 -4.348455
62.637922 46.960872 0.004934 0.000000 0.000000 0.000000 -6.096713 -11.674690 -0.623879 -5.411312 70.080911 3.796173 7.414383 -2.880419 0.186671 6.111551 66.940823 -4.042767
62.081373 46.907163 0.005333 0.000000 0.000000 0.000000 -6.842910 -7.921242 -0.474338 -6.605275 69.490864 4.584096 5.762574 -1.050482 0.052873 5.564122 66.613094 -3.657489
61.620057 46.846066 0.005547 0.000000 0.000000 0.000000 -7.220101 -6.074722 -0.383617 -8.034020 68.945681 5.520804 5.064343 -0.048503 0.002145 4.689952 66.099522 -3.052468
61.187953 46.804032 0.005669 0.000000 0.000000 0.000000 -6.758558 -6.712320 -0.396802 -10.032105 68.498305 6.839770 4.670685 -0.189398 0.007724 3.517834 65.261765 -2.252839
60.674009 46.724097 0.006020 0.000000 0.000000 0.000000 -7.007452 -6.738919 -0.413084 -11.469780 67.609182 7.693847 4.037020 -0.439922 0.015505 2.351288 64.336699 -1.478997
60.140339 46.699175 0.006719 0.000000 0.000000 0.000000 -7.092484 -3.770911 -0.233778 -13.108344 67.238730 8.736798 3.468977 1.268836 -0.038424 0.947261 63.924942 -0.591060
59.564593 46.665259 0.007093 0.000000 0.000000 0.000000 -7.927180 -2.371947 -0.164371 -14.357331 66.791058 9.493371 2.593543 3.315576 -0.075075 -0.159254 63.516066 0.098580
58.975103 46.657917 0.007483 0.000000 0.000000 0.000000 -8.463121 -1.401512 -0.103702 -15.849879 66.129394 10.356515 1.385806 3.350551 -0.040533 -0.740263 62.629596 0.450353
58.368096 46.626677 0.008523 0.000000 0.000000 0.000000 -8.898584 -1.277173 -0.099383 -17.435418 65.790911 11.328308 0.384601 2.992630 -0.010046 -1.840150 62.582109 1.118496
57.771209 46.606976 0.008895 0.000000 0.000000 0.000000 -9.960407 -3.539439 -0.308526 -17.913020 66.034977 11.695599 -0.448662 0.877056 0.003434 -3.153469 63.143984 1.938207
57.279778 46.594664 0.009145 0.000000 0.000000 0.000000 -10.577842 -8.443713 -0.783058 -18.556022 66.941467 12.328914 -0.969962 -1.516523 -0.012838 -4.370144 64.236462 2.744130
56.681949 46.611236 0.009331 0.000000 0.000000 0.000000 -11.255044 -10.212528 -1.008947 -19.595866 67.202987 13.091364 -2.133997 -3.411181 -0.063551 -5.321216 64.800878 3.378454
56.121160 46.628737 0.009691 0.000000 0.000000 0.000000 -12.458664 -9.737930 -1.065457 -19.790404 68.694343 13.595911 -2.820530 -3.176170 -0.078213 -6.676509 66.918508 4.415073
55.580354 46.654595 0.010009 0.000000 0.000000 0.000000 -13.192044 -10.030975 -1.162850 -20.497365 69.035230 14.176257 -3.761028 -2.883199 -0.094684 -7.619655 67.623291 5.107307
55.035761 46.677707 0.010074 0.000000 0.000000 0.000000 -13.627787 -9.970637 -1.194351 -21.363310 69.141700 14.811446 -4.852407 -2.555143 -0.108281 -8.571651 67.939649 5.780971
54.493564 46.749000 0.010425 0.000000 0.000000 0.000000 -14.154541 -9.833968 -1.223883 -21.727536 69.540377 15.178284 -5.810985 -2.388127 -0.121224 -9.644629 68.594843 6.586797
53.992030 46.817082 0.011103 0.000000 0.000000 0.000000 -15.039692 -9.845410 -1.302793 -22.162550 70.022159 15.623746 -6.485185 -2.599827 -0.147317 -10.725371 69.965618 7.516386
53.454576 46.864782 0.011178 0.000000 0.000000 0.000000 -15.972543 -9.701021 -1.364216 -22.688575 70.019750 15.998753 -7.294434 -2.510650 -0.160059 -11.871571 69.790671 8.295515
53.102939 46.926567 0.011761 0.000000 0.000000 0.000000 -16.963190 -8.390419 -1.253392 -22.740952 69.959545 16.018491 -7.794981 -2.070580 -0.141082 -12.557779 70.026069 8.815266
52.768733 47.000577 0.011765 0.000000 0.000000 0.000000 -17.524983 -8.333697 -1.286754 -22.907051 69.856620 16.106645 -8.355991 -2.058910 -0.150418 -13.122350 69.684493 9.155238
52.463903 47.062993 0.011777 0.000000 0.000000 0.000000 -18.404783 -9.648365 -1.566714 -22.941553 70.046101 16.187372 -8.580484 -2.904411 -0.217933 -13.902431 70.010788 9.760915
